{"type":"FeatureCollection","features":[{"type":"Feature","id":1097678,"geometry":{"type":"Polygon","coordinates":[[[-118.9918863,36.05436356],[-118.99063967,36.05421634],[-118.98971854,36.05384855],[-118.98881621,36.05365402],[-118.98748903,36.05304306],[-118.98704539,36.05264183],[-118.98395491,36.05241385],[-118.98276684,36.05264791],[-118.98181188,36.05225883],[-118.9810073,36.05232874],[-118.97980419,36.05234698],[-118.97879659,36.05217068],[-118.97823264,36.05196399],[-118.97663852,36.05215245],[-118.97508952,36.05263879],[-118.97451053,36.05279077],[-118.97415711,36.05291843],[-118.97339013,36.05274821],[-118.97272504,36.05271211],[-118.97273788,36.05132672],[-118.9728059,36.0513302],[-118.97303997,36.05132919],[-118.98169016,36.0512862],[-118.98223393,36.05128267],[-118.98629251,36.05218455],[-118.98770696,36.05259624],[-118.98881024,36.05303079],[-118.99098851,36.05378552],[-118.9918553,36.05381633],[-118.9918863,36.05436356]]]},"properties":{"OBJECTID":1097678,"COUNTY":"TULARE","CITY":"PVL","ZONE_NAME":null,"ZONE_ID":"US-CA-XTU-PVL-E044","STATUS":"Evacuation Order","EVENT_TYPE":null,"CRITICAL_INFO":null,"PUBLIC_INFO":null,"EDIT_DATE":1695249188000,"STATEWIDE_LAST_UPDATED":null,"NOTES":"Flooding","SHAPE__Area":247872.7890625,"SHAPE__Length":4705.1899556937969,"GlobalID":"67c10798-70df-43b5-921f-3603c81609ff","CreationDate":1788335714000,"Creator":"CalOES_Scripts","EditDate":1788335714000,"Editor":"CalOES_Scripts"}},{"type":"Feature","id":1097685,"geometry":{"type":"Polygon","coordinates":[[[-119.01663142,36.05593591],[-119.01691895,36.05595534],[-119.01779816,36.05601476],[-119.01969569,36.05614299],[-119.02551765,36.05653644],[-119.02613127,36.05670178],[-119.0261346,36.0567991],[-119.0261438,36.0570697],[-119.02615105,36.05726749],[-119.01661235,36.05653253],[-119.01663142,36.05593591]]]},"properties":{"OBJECTID":1097685,"COUNTY":"TULARE","CITY":"PVL","ZONE_NAME":null,"ZONE_ID":"US-CA-XTU-PVL-E036","STATUS":"Evacuation Order","EVENT_TYPE":null,"CRITICAL_INFO":null,"PUBLIC_INFO":null,"EDIT_DATE":1695249188000,"STATEWIDE_LAST_UPDATED":null,"NOTES":"Flooding","SHAPE__Area":93231.91796875,"SHAPE__Length":2291.4262048653245,"GlobalID":"85bd69e6-a089-4f50-a6a5-735da1e05308","CreationDate":1788335714000,"Creator":"CalOES_Scripts","EditDate":1788335714000,"Editor":"CalOES_Scripts"}},{"type":"Feature","id":1097693,"geometry":{"type":"Polygon","coordinates":[[[-119.01663989,36.05561998],[-119.0166333,36.0558772],[-119.01663142,36.05593591],[-119.01556698,36.05586397],[-119.01494685,36.05586337],[-119.01418722,36.05609623],[-119.01308538,36.05643397],[-119.01192945,36.05647877],[-119.00843398,36.05631517],[-119.00793534,36.05620523],[-119.00803219,36.05494595],[-119.00889542,36.05499765],[-119.01047961,36.05559228],[-119.01243157,36.05524922],[-119.01378944,36.05536357],[-119.01458154,36.05547792],[-119.01663989,36.05561998]]]},"properties":{"OBJECTID":1097693,"COUNTY":"TULARE","CITY":"PVL","ZONE_NAME":null,"ZONE_ID":"US-CA-XTU-PVL-E039","STATUS":"Evacuation Order","EVENT_TYPE":null,"CRITICAL_INFO":null,"PUBLIC_INFO":null,"EDIT_DATE":1695249188000,"STATEWIDE_LAST_UPDATED":null,"NOTES":"Flooding","SHAPE__Area":117016.9921875,"SHAPE__Length":2187.5932811268758,"GlobalID":"f5e1b2e3-04f1-4063-91db-1b28d6492ad8","CreationDate":1788335714000,"Creator":"CalOES_Scripts","EditDate":1788335714000,"Editor":"CalOES_Scripts"}},{"type":"Feature","id":1097706,"geometry":{"type":"Polygon","coordinates":[[[-119.03924344,36.0602806],[-119.03849882,36.06017579],[-119.03791805,36.06009404],[-119.03579421,36.0595524],[-119.03512778,36.05938244],[-119.03301385,36.05880857],[-119.02918145,36.05752364],[-119.02613127,36.05670178],[-119.02551765,36.05653644],[-119.01969569,36.05614299],[-119.01779816,36.05601476],[-119.01691895,36.05595534],[-119.01663142,36.05593591],[-119.0166333,36.0558772],[-119.01664,36.0556156],[-119.0166448,36.0554274],[-119.01664842,36.05532994],[-119.01836866,36.05537553],[-119.02227243,36.05566244],[-119.02415334,36.05586328],[-119.02635364,36.05620757],[-119.02798613,36.05649447],[-119.02968959,36.05686745],[-119.03199636,36.05792898],[-119.03341592,36.05835933],[-119.03508389,36.05861754],[-119.0360066,36.05893312],[-119.03778104,36.05962167],[-119.03925238,36.05968215],[-119.03924344,36.0602806]]]},"properties":{"OBJECTID":1097706,"COUNTY":"TULARE","CITY":"PVL","ZONE_NAME":null,"ZONE_ID":"US-CA-XTU-PVL-E034","STATUS":"Evacuation Order","EVENT_TYPE":null,"CRITICAL_INFO":null,"PUBLIC_INFO":null,"EDIT_DATE":1695249188000,"STATEWIDE_LAST_UPDATED":null,"NOTES":"Flooding","SHAPE__Area":217621.41796875,"SHAPE__Length":5393.0078694906724,"GlobalID":"7f617f43-831e-400c-b392-fe1e66343afe","CreationDate":1788335714000,"Creator":"CalOES_Scripts","EditDate":1788335714000,"Editor":"CalOES_Scripts"}},{"type":"Feature","id":1097722,"geometry":{"type":"Polygon","coordinates":[[[-119.00793534,36.05620523],[-119.00792992,36.05620403],[-119.00739118,36.05608524],[-119.0040543,36.0542285],[-119.00091118,36.05479994],[-118.99733194,36.05411908],[-118.99197812,36.0543744],[-118.9918863,36.05436356],[-118.9918553,36.05381633],[-118.99356282,36.05387701],[-118.99718383,36.05369404],[-119.00040868,36.05438014],[-119.00227576,36.05383125],[-119.00354877,36.05380838],[-119.00417114,36.05403708],[-119.006604,36.05486042],[-119.00803219,36.05494595],[-119.00793534,36.05620523]]]},"properties":{"OBJECTID":1097722,"COUNTY":"TULARE","CITY":"PVL","ZONE_NAME":null,"ZONE_ID":"US-CA-XTU-PVL-E042","STATUS":"Evacuation Order","EVENT_TYPE":null,"CRITICAL_INFO":null,"PUBLIC_INFO":null,"EDIT_DATE":1695249188000,"STATEWIDE_LAST_UPDATED":null,"NOTES":"Flooding","SHAPE__Area":129003.35546875,"SHAPE__Length":3995.5603295714513,"GlobalID":"391443c9-8ded-45bd-afdd-e51a7623c159","CreationDate":1788335714000,"Creator":"CalOES_Scripts","EditDate":1788335714000,"Editor":"CalOES_Scripts"}},{"type":"Feature","id":1097726,"geometry":{"type":"Polygon","coordinates":[[[-119.02614973,36.05723153],[-119.0261438,36.0570697],[-119.0261346,36.0567991],[-119.02613127,36.05670178],[-119.02918145,36.05752364],[-119.03301385,36.05880857],[-119.03512778,36.05938244],[-119.03579421,36.0595524],[-119.03791805,36.06009404],[-119.03849882,36.06017579],[-119.03924344,36.0602806],[-119.0392347,36.0608653],[-119.03923501,36.06098307],[-119.03700112,36.06058049],[-119.03487695,36.05996994],[-119.03401154,36.05993178],[-119.03283145,36.05941027],[-119.03130519,36.05893963],[-119.03042405,36.05865978],[-119.02925969,36.05820186],[-119.0272142,36.05741321],[-119.02614973,36.05723153]]]},"properties":{"OBJECTID":1097726,"COUNTY":"TULARE","CITY":"PVL","ZONE_NAME":null,"ZONE_ID":"US-CA-XTU-PVL-E032","STATUS":"Evacuation Order","EVENT_TYPE":null,"CRITICAL_INFO":null,"PUBLIC_INFO":null,"EDIT_DATE":1695249188000,"STATEWIDE_LAST_UPDATED":null,"NOTES":"Flooding","SHAPE__Area":131817.57421875,"SHAPE__Length":3269.8649269497946,"GlobalID":"6dd676fe-9b92-44c6-827a-82f47de49b7c","CreationDate":1788335714000,"Creator":"CalOES_Scripts","EditDate":1788335714000,"Editor":"CalOES_Scripts"}},{"type":"Feature","id":1097728,"geometry":{"type":"Polygon","coordinates":[[[-119.05750879,36.05476396],[-119.05751181,36.05514409],[-119.05601222,36.05521834],[-119.0511452,36.05500832],[-119.04711913,36.05624433],[-119.04610482,36.05715066],[-119.0455668,36.05784284],[-119.04478823,36.05861182],[-119.04471489,36.05954423],[-119.04287378,36.06050594],[-119.04001297,36.06100968],[-119.03923504,36.06099434],[-119.0392347,36.0608653],[-119.03924344,36.0602806],[-119.03949898,36.06031657],[-119.03955298,36.06032417],[-119.03974258,36.06030653],[-119.04028598,36.06025597],[-119.04119542,36.06003102],[-119.04333158,36.05950264],[-119.04372658,36.05927397],[-119.04485518,36.05829044],[-119.04521535,36.05780571],[-119.04635125,36.05627697],[-119.04671805,36.05595677],[-119.05091965,36.05463177],[-119.05148358,36.05458624],[-119.05647318,36.05468077],[-119.0574633,36.05474012],[-119.05751088,36.05474297],[-119.05750879,36.05476396]]]},"properties":{"OBJECTID":1097728,"COUNTY":"TULARE","CITY":"PVL","ZONE_NAME":null,"ZONE_ID":"US-CA-XTU-PVL-E030","STATUS":"Evacuation Order","EVENT_TYPE":null,"CRITICAL_INFO":null,"PUBLIC_INFO":null,"EDIT_DATE":1695249188000,"STATEWIDE_LAST_UPDATED":null,"NOTES":"Flooding","SHAPE__Area":160517.91796875,"SHAPE__Length":4876.2344771372282,"GlobalID":"45a63829-f723-41a4-ace4-7f53443f40df","CreationDate":1788335714000,"Creator":"CalOES_Scripts","EditDate":1788335714000,"Editor":"CalOES_Scripts"}},{"type":"Feature","id":1097731,"geometry":{"type":"Polygon","coordinates":[[[-119.00789512,36.05672891],[-119.007915,36.0564319],[-119.00792992,36.05620403],[-119.00843398,36.05631517],[-119.01192945,36.05647877],[-119.01308538,36.05643397],[-119.01418722,36.05609623],[-119.01494685,36.05586337],[-119.01556698,36.05586397],[-119.01663142,36.05593591],[-119.01661169,36.05655299],[-119.01604402,36.05653689],[-119.01478714,36.05651696],[-119.01332078,36.05677597],[-119.01239067,36.05671738],[-119.01047007,36.05665879],[-119.00932254,36.05664902],[-119.00789512,36.05672891]]]},"properties":{"OBJECTID":1097731,"COUNTY":"TULARE","CITY":"PVL","ZONE_NAME":null,"ZONE_ID":"US-CA-XTU-PVL-E038","STATUS":"Evacuation Order","EVENT_TYPE":null,"CRITICAL_INFO":null,"PUBLIC_INFO":null,"EDIT_DATE":1695249188000,"STATEWIDE_LAST_UPDATED":null,"NOTES":"Flooding","SHAPE__Area":54052.03125,"SHAPE__Length":2118.774775087265,"GlobalID":"d6db4803-de97-4a50-97d8-ead1ef1d9948","CreationDate":1788335714000,"Creator":"CalOES_Scripts","EditDate":1788335714000,"Editor":"CalOES_Scripts"}},{"type":"Feature","id":1098059,"geometry":{"type":"Polygon","coordinates":[[[-118.80899292,34.75740811],[-118.79605029,34.75826233],[-118.7961074,34.7581898],[-118.79610212,34.75814958],[-118.79607391,34.75793462],[-118.7960698,34.7579033],[-118.7960296,34.7574923],[-118.7960095,34.7570582],[-118.7958901,34.7519919],[-118.7958512,34.7498685],[-118.7958392,34.7491181],[-118.79585596,34.74863578],[-118.79543509,34.748773],[-118.7954351,34.7486283],[-118.7954404,34.7483594],[-118.7954941,34.7474382],[-118.79552837,34.74708816],[-118.79555905,34.7467749],[-118.79556625,34.74670132],[-118.7955692,34.7466712],[-118.7956094,34.74635385],[-118.7956496,34.7460365],[-118.7957516,34.7453753],[-118.7958029,34.74509121],[-118.79584762,34.74484364],[-118.7958608,34.74477062],[-118.79724064,34.73712966],[-118.7986269,34.7294524],[-118.79868055,34.72912615],[-118.7987342,34.7287999],[-118.79882,34.728165],[-118.79886025,34.7278035],[-118.7989005,34.727442],[-118.79890804,34.72733444],[-118.798913,34.72726373],[-118.79891817,34.72719002],[-118.79892042,34.72715788],[-118.79892559,34.72708418],[-118.7989337,34.72696851],[-118.7989444,34.726816],[-118.79896,34.7265007],[-118.7989756,34.7261854],[-118.79898095,34.7258878],[-118.7989863,34.7255902],[-118.7989836,34.7252882],[-118.7989809,34.7249862],[-118.79897469,34.72483713],[-118.809769,34.72429],[-118.80899292,34.75740811]]]},"properties":{"OBJECTID":1098059,"COUNTY":"LOS ANGELES","CITY":"GOR","ZONE_NAME":null,"ZONE_ID":"US-CA-XLA-GOR-HUNGRYVALLEY-D","STATUS":"Evacuation Warning","EVENT_TYPE":null,"CRITICAL_INFO":null,"PUBLIC_INFO":null,"EDIT_DATE":1791515034000,"STATEWIDE_LAST_UPDATED":null,"NOTES":"Local authorities are responding to a Wildfire. An EVACUATION WARNING has been issued. PREPARE TO LEAVE.  Consider leaving now if you need more time to evacuate. Call 911 for emergency assistance. Visit AlertLA.org for more information.\n\n","SHAPE__Area":6244041.8515625,"SHAPE__Length":11763.46766609863,"GlobalID":"efea333b-81cc-4995-bcda-e8d75fa4d8c2","CreationDate":1791515135000,"Creator":"CalOES_Scripts","EditDate":1791515135000,"Editor":"CalOES_Scripts"}},{"type":"Feature","id":1098063,"geometry":{"type":"Polygon","coordinates":[[[-118.79889254,34.72751347],[-118.79886025,34.7278035],[-118.79882,34.728165],[-118.7987342,34.7287999],[-118.79872756,34.72884028],[-118.79868055,34.72912615],[-118.7986269,34.7294524],[-118.79724064,34.73712966],[-118.7958608,34.74477062],[-118.79584762,34.74484364],[-118.7958029,34.74509121],[-118.7957516,34.7453753],[-118.7956496,34.7460365],[-118.7956094,34.74635385],[-118.7955692,34.7466712],[-118.79556625,34.74670132],[-118.79555905,34.7467749],[-118.79552837,34.74708816],[-118.79551666,34.74720782],[-118.787449,34.747075],[-118.787404,34.727829],[-118.79889254,34.72751347]]]},"properties":{"OBJECTID":1098063,"COUNTY":"LOS ANGELES","CITY":"GOR","ZONE_NAME":null,"ZONE_ID":"US-CA-XLA-GOR-E004-D","STATUS":"Evacuation Order","EVENT_TYPE":null,"CRITICAL_INFO":null,"PUBLIC_INFO":null,"EDIT_DATE":1791515119000,"STATEWIDE_LAST_UPDATED":null,"NOTES":"Local authorities are responding to a fast-moving Wildfire. An EVACUATION ORDER has been issued. LEAVE NOW. Your safety is in danger if you stay. Call 911 if you need emergency assistance. Visit Alertla.org for more information.\n","SHAPE__Area":2866988.24609375,"SHAPE__Length":7479.5869579596911,"GlobalID":"6dfa9c4b-53df-4ce0-b956-d4bb3966689e","CreationDate":1791515432000,"Creator":"CalOES_Scripts","EditDate":1791515432000,"Editor":"CalOES_Scripts"}},{"type":"Feature","id":1098065,"geometry":{"type":"Polygon","coordinates":[[[-118.79898237,34.72515097],[-118.7989836,34.7252882],[-118.7989863,34.7255902],[-118.79898095,34.7258878],[-118.7989756,34.7261854],[-118.79896,34.7265007],[-118.7989444,34.726816],[-118.7989337,34.72696851],[-118.79892559,34.72708418],[-118.79892042,34.72715788],[-118.79891817,34.72719002],[-118.798913,34.72726373],[-118.79890804,34.72733444],[-118.7989005,34.727442],[-118.79889254,34.72751347],[-118.787404,34.727829],[-118.787449,34.747075],[-118.79551666,34.74720782],[-118.7954941,34.7474382],[-118.7954404,34.7483594],[-118.7954351,34.7486283],[-118.79543509,34.748773],[-118.79585596,34.74863578],[-118.7958392,34.7491181],[-118.7958512,34.7498685],[-118.7958901,34.7519919],[-118.7960095,34.7570582],[-118.7960296,34.7574923],[-118.7960698,34.7579033],[-118.79607391,34.75793462],[-118.79610212,34.75814958],[-118.7961074,34.7581898],[-118.7960359,34.7582806],[-118.79585239,34.75856462],[-118.79576141,34.75868109],[-118.79573318,34.75871723],[-118.778936,34.758691],[-118.779566,34.725856],[-118.79898237,34.72515097]]]},"properties":{"OBJECTID":1098065,"COUNTY":"LOS ANGELES","CITY":"GOR","ZONE_NAME":null,"ZONE_ID":"US-CA-XLA-GOR-E004-C","STATUS":"Evacuation Warning","EVENT_TYPE":null,"CRITICAL_INFO":null,"PUBLIC_INFO":null,"EDIT_DATE":1791515568000,"STATEWIDE_LAST_UPDATED":null,"NOTES":"Local authorities are responding to a fast-moving Wildfire. An EVACUATION ORDER has been issued. LEAVE NOW. Your safety is in danger if you stay. Call 911 if you need emergency assistance. Visit Alertla.org for more information.","SHAPE__Area":5940497.1640625,"SHAPE__Length":15227.97606256059,"GlobalID":"d64c5e41-7164-4a65-8fa4-7795200ff4a3","CreationDate":1791515732000,"Creator":"CalOES_Scripts","EditDate":1791515732000,"Editor":"CalOES_Scripts"}}]}