{"type":"FeatureCollection","features":[{"type":"Feature","id":1097674,"geometry":{"type":"Polygon","coordinates":[[[-117.16912262,32.92499243],[-117.16965827,32.92469327],[-117.17023573,32.92535856],[-117.17177765,32.92470634],[-117.1713022,32.92377513],[-117.17133891,32.92375463],[-117.17135696,32.92311718],[-117.17138597,32.92209309],[-117.17140185,32.92153257],[-117.1714122,32.92116714],[-117.171429,32.92096879],[-117.17143107,32.92044843],[-117.17143379,32.91975956],[-117.17180857,32.91976781],[-117.17179986,32.91916317],[-117.1720892,32.9189649],[-117.1724493,32.9187634],[-117.172799,32.9186188],[-117.17302438,32.91853399],[-117.1731017,32.9185049],[-117.1734097,32.9184173],[-117.1739452,32.91831295],[-117.1739685,32.91981536],[-117.17831726,32.91985292],[-117.17859766,32.91970151],[-117.17983635,32.92020133],[-117.18009951,32.92043297],[-117.18144363,32.92057402],[-117.18160889,32.92079266],[-117.18108726,32.92138752],[-117.18160293,32.92176843],[-117.18201605,32.9216966],[-117.18257326,32.92106581],[-117.18350698,32.92000875],[-117.18389494,32.91971722],[-117.18353344,32.91943136],[-117.18344803,32.91906095],[-117.18441337,32.9185177],[-117.18481427,32.91883075],[-117.18580411,32.91875454],[-117.18657207,32.91851294],[-117.18689114,32.91831381],[-117.18699145,32.91825081],[-117.18772197,32.9179979],[-117.18887271,32.91742572],[-117.18980786,32.91657935],[-117.1909424,32.916021],[-117.19239058,32.91576358],[-117.19298218,32.91471462],[-117.1939616,32.9148858],[-117.19458349,32.91514216],[-117.19503996,32.91516615],[-117.19545013,32.91483717],[-117.19604147,32.91436142],[-117.1966986,32.91421739],[-117.19704889,32.91410634],[-117.19742004,32.91377367],[-117.19840792,32.91392999],[-117.19996323,32.91391356],[-117.20023165,32.9137246],[-117.2004772,32.91322797],[-117.20184716,32.91335486],[-117.20193901,32.91331642],[-117.2023824,32.91313085],[-117.20250353,32.91288255],[-117.20243908,32.91234708],[-117.20260003,32.91203157],[-117.20267838,32.91187799],[-117.20249739,32.91171447],[-117.2027672,32.91105275],[-117.20269002,32.9108472],[-117.20310126,32.91030807],[-117.20365306,32.91006936],[-117.20397524,32.91004715],[-117.2055326,32.90945772],[-117.20663009,32.90850525],[-117.20644286,32.90806694],[-117.20646683,32.90727517],[-117.20648488,32.90707655],[-117.20651553,32.90706759],[-117.2065685,32.9070521],[-117.2067178,32.9070234],[-117.207016,32.906966],[-117.2072511,32.9069438],[-117.2073815,32.9069315],[-117.2078126,32.9069418],[-117.2084285,32.907028],[-117.2089704,32.9071762],[-117.2095247,32.9073107],[-117.2099477,32.9073693],[-117.21035,32.9073762],[-117.2106785,32.9073727],[-117.2113601,32.9072865],[-117.2118897,32.9071314],[-117.2120037,32.9070876],[-117.2123291,32.9069625],[-117.2125508,32.906866],[-117.2127889,32.9067074],[-117.2131585,32.9064351],[-117.2134582,32.9061766],[-117.2136881,32.9059008],[-117.2138524,32.9056629],[-117.2144111,32.90584153],[-117.21541146,32.90585751],[-117.21604443,32.90578296],[-117.21773757,32.90575838],[-117.21827336,32.90569182],[-117.21951532,32.9053547],[-117.22003613,32.90526518],[-117.22169009,32.90523657],[-117.22193702,32.90519364],[-117.22222721,32.90505253],[-117.22265584,32.90473971],[-117.22315902,32.90449877],[-117.22378181,32.90440691],[-117.22381676,32.9044478],[-117.2241764,32.9048685],[-117.2244253,32.9052288],[-117.2249666,32.9061073],[-117.22579113,32.90749447],[-117.22445726,32.90821915],[-117.22430032,32.90832723],[-117.22359332,32.90881409],[-117.22343859,32.90892064],[-117.22329671,32.90901835],[-117.22318894,32.90893421],[-117.22315406,32.9089068],[-117.22256297,32.9084418],[-117.22250187,32.90839378],[-117.2224505,32.90844018],[-117.22158517,32.90922122],[-117.21721508,32.90920848],[-117.21719735,32.91070538],[-117.21718821,32.91147696],[-117.21718654,32.91161759],[-117.2171848,32.91176446],[-117.21718302,32.91191408],[-117.2171812,32.9120682],[-117.21717935,32.91222369],[-117.21717806,32.91233196],[-117.21717223,32.91282416],[-117.21684221,32.9127585],[-117.21674488,32.91273935],[-117.21624135,32.9126403],[-117.21583947,32.91256122],[-117.21568241,32.91319207],[-117.21559536,32.91354174],[-117.21579214,32.91408831],[-117.21583567,32.91420922],[-117.21548474,32.91484644],[-117.21529354,32.91477198],[-117.21357153,32.91410603],[-117.2133973,32.9144247],[-117.21307252,32.91501872],[-117.21317526,32.91533673],[-117.21327729,32.91543072],[-117.21427743,32.91635193],[-117.21413208,32.91651363],[-117.21407097,32.91652852],[-117.21430597,32.91663102],[-117.21448621,32.9169793],[-117.21442172,32.91703185],[-117.21437606,32.91705811],[-117.21432438,32.91707463],[-117.2142698,32.9170805],[-117.21420444,32.91708101],[-117.21413536,32.91707326],[-117.21408224,32.91706019],[-117.21398836,32.91702267],[-117.21392224,32.91699228],[-117.21379224,32.91694471],[-117.21370031,32.91692246],[-117.21361615,32.91690543],[-117.21356163,32.91689728],[-117.21350637,32.91689439],[-117.21345108,32.91689679],[-117.21339646,32.91690444],[-117.21334322,32.91691726],[-117.21329205,32.91693508],[-117.21324358,32.91695766],[-117.21319846,32.91698472],[-117.21312939,32.91708232],[-117.21310981,32.91714974],[-117.2131058,32.91722181],[-117.21310642,32.91730191],[-117.21309451,32.91734731],[-117.21302836,32.91744049],[-117.21291934,32.91755904],[-117.21278698,32.9176645],[-117.21257947,32.9178139],[-117.21247848,32.91786119],[-117.21230717,32.91791641],[-117.21220494,32.9179599],[-117.21207027,32.91799891],[-117.21201627,32.9180055],[-117.21196269,32.9179948],[-117.21191755,32.91796819],[-117.21183279,32.91786443],[-117.21164022,32.91771353],[-117.21140222,32.91766673],[-117.21043461,32.91789141],[-117.21026031,32.9181105],[-117.21041734,32.9183355],[-117.20992725,32.91906384],[-117.20995873,32.91920363],[-117.21005201,32.91961675],[-117.21014478,32.9200286],[-117.21003543,32.92002816],[-117.20982043,32.92002729],[-117.20966196,32.92002665],[-117.20915606,32.9200246],[-117.20904908,32.92002417],[-117.20898205,32.9200249],[-117.20895075,32.92002524],[-117.208789,32.920027],[-117.20449156,32.92000713],[-117.204248,32.920006],[-117.19103402,32.92733135],[-117.18574,32.930266],[-117.17816408,32.93447023],[-117.17467582,32.93640487],[-117.17414481,32.93679759],[-117.17185028,32.93803582],[-117.16918367,32.93948056],[-117.16918348,32.93944228],[-117.16917743,32.93837261],[-117.16917703,32.93830035],[-117.16917947,32.93759946],[-117.16918075,32.93714257],[-117.16918818,32.93447109],[-117.16919856,32.93128872],[-117.16912262,32.92499243]]]},"properties":{"OBJECTID":1097674,"COUNTY":"SAN DIEGO","CITY":"SDC","ZONE_NAME":null,"ZONE_ID":"US-CA-XSD-SDC-1444-A","STATUS":"Evacuation Order","EVENT_TYPE":null,"CRITICAL_INFO":null,"PUBLIC_INFO":null,"EDIT_DATE":1786933088000,"STATEWIDE_LAST_UPDATED":null,"NOTES":"SDPD - Sorrento Fire Update. Evacuation order remains in place for Los Penasquitos Canyon Preserve. All surrounding residential areas are open. Please stay clear of the Preserve and be cautious of First Responders working in the general area. 8/16/26 717pm.   ","SHAPE__Area":8776250.6796875,"SHAPE__Length":20179.565579245358,"GlobalID":"0f87b4d7-b9b4-46ce-92f3-f45eaafc28dc","CreationDate":1788335714000,"Creator":"CalOES_Scripts","EditDate":1788335714000,"Editor":"CalOES_Scripts"}},{"type":"Feature","id":1097678,"geometry":{"type":"Polygon","coordinates":[[[-118.9918863,36.05436356],[-118.99063967,36.05421634],[-118.98971854,36.05384855],[-118.98881621,36.05365402],[-118.98748903,36.05304306],[-118.98704539,36.05264183],[-118.98395491,36.05241385],[-118.98276684,36.05264791],[-118.98181188,36.05225883],[-118.9810073,36.05232874],[-118.97980419,36.05234698],[-118.97879659,36.05217068],[-118.97823264,36.05196399],[-118.97663852,36.05215245],[-118.97508952,36.05263879],[-118.97451053,36.05279077],[-118.97415711,36.05291843],[-118.97339013,36.05274821],[-118.97272504,36.05271211],[-118.97273788,36.05132672],[-118.9728059,36.0513302],[-118.97303997,36.05132919],[-118.98169016,36.0512862],[-118.98223393,36.05128267],[-118.98629251,36.05218455],[-118.98770696,36.05259624],[-118.98881024,36.05303079],[-118.99098851,36.05378552],[-118.9918553,36.05381633],[-118.9918863,36.05436356]]]},"properties":{"OBJECTID":1097678,"COUNTY":"TULARE","CITY":"PVL","ZONE_NAME":null,"ZONE_ID":"US-CA-XTU-PVL-E044","STATUS":"Evacuation Order","EVENT_TYPE":null,"CRITICAL_INFO":null,"PUBLIC_INFO":null,"EDIT_DATE":1695249188000,"STATEWIDE_LAST_UPDATED":null,"NOTES":"Flooding","SHAPE__Area":247872.7890625,"SHAPE__Length":4705.1899556937969,"GlobalID":"67c10798-70df-43b5-921f-3603c81609ff","CreationDate":1788335714000,"Creator":"CalOES_Scripts","EditDate":1788335714000,"Editor":"CalOES_Scripts"}},{"type":"Feature","id":1097685,"geometry":{"type":"Polygon","coordinates":[[[-119.01663142,36.05593591],[-119.01691895,36.05595534],[-119.01779816,36.05601476],[-119.01969569,36.05614299],[-119.02551765,36.05653644],[-119.02613127,36.05670178],[-119.0261346,36.0567991],[-119.0261438,36.0570697],[-119.02615105,36.05726749],[-119.01661235,36.05653253],[-119.01663142,36.05593591]]]},"properties":{"OBJECTID":1097685,"COUNTY":"TULARE","CITY":"PVL","ZONE_NAME":null,"ZONE_ID":"US-CA-XTU-PVL-E036","STATUS":"Evacuation Order","EVENT_TYPE":null,"CRITICAL_INFO":null,"PUBLIC_INFO":null,"EDIT_DATE":1695249188000,"STATEWIDE_LAST_UPDATED":null,"NOTES":"Flooding","SHAPE__Area":93231.91796875,"SHAPE__Length":2291.4262048653245,"GlobalID":"85bd69e6-a089-4f50-a6a5-735da1e05308","CreationDate":1788335714000,"Creator":"CalOES_Scripts","EditDate":1788335714000,"Editor":"CalOES_Scripts"}},{"type":"Feature","id":1097688,"geometry":{"type":"Polygon","coordinates":[[[-121.76326717,36.36976076],[-121.76288022,36.36974182],[-121.7625291,36.36968555],[-121.76221438,36.36965595],[-121.76196646,36.3695815],[-121.76159628,36.36949787],[-121.76111072,36.36951727],[-121.7606564,36.36947918],[-121.76046775,36.3694304],[-121.76009119,36.36933305],[-121.76000911,36.36932396],[-121.75953112,36.36927106],[-121.75938051,36.36920858],[-121.7590674,36.36907869],[-121.75856648,36.36881225],[-121.75817657,36.36843942],[-121.75762573,36.36767411],[-121.75722454,36.36736677],[-121.75700275,36.36715067],[-121.7562839,36.36619523],[-121.7561059,36.36603535],[-121.75608343,36.36601515],[-121.7558793,36.36583178],[-121.75544172,36.36549777],[-121.75520175,36.36526834],[-121.7548278,36.36455219],[-121.75459344,36.36384453],[-121.75433613,36.36361578],[-121.7539489,36.36325164],[-121.75352442,36.3628468],[-121.75340069,36.36281883],[-121.75336579,36.36281094],[-121.75301897,36.36282477],[-121.75254138,36.36268916],[-121.75211837,36.36259356],[-121.75192763,36.36260116],[-121.75159193,36.36279731],[-121.75125709,36.36300748],[-121.75087815,36.36313078],[-121.75081392,36.36315168],[-121.75058079,36.3632631],[-121.750493,36.36330506],[-121.75001173,36.36339453],[-121.74976462,36.36336932],[-121.74941702,36.36333387],[-121.74906936,36.36333366],[-121.74903756,36.36333878],[-121.74860458,36.36340842],[-121.74823444,36.36332474],[-121.74788933,36.36313351],[-121.7477847,36.36307554],[-121.74747351,36.36303036],[-121.74732872,36.36300934],[-121.74698559,36.36279806],[-121.74677433,36.36247293],[-121.74673626,36.36241434],[-121.74657593,36.36235043],[-121.74632734,36.36248731],[-121.74627319,36.36251713],[-121.74571631,36.36279236],[-121.74536155,36.36296114],[-121.74496415,36.36328625],[-121.7445406,36.363753],[-121.74398114,36.36398615],[-121.74337763,36.36406641],[-121.74312947,36.36408188],[-121.74275421,36.36410527],[-121.74218536,36.36418414],[-121.74183059,36.3643529],[-121.74140047,36.36442625],[-121.74087057,36.36457385],[-121.74016362,36.36471773],[-121.73984033,36.36478353],[-121.7396166,36.36482054],[-121.73909637,36.36484123],[-121.73867506,36.36477362],[-121.73821055,36.36456714],[-121.73780915,36.36454092],[-121.73736169,36.36461494],[-121.73675474,36.36463906],[-121.73647643,36.36463606],[-121.73617294,36.3645411],[-121.73551956,36.36433666],[-121.73506443,36.36428444],[-121.73499235,36.3642873],[-121.73473495,36.36429753],[-121.73438812,36.3643113],[-121.73387331,36.36413492],[-121.73381021,36.36395466],[-121.73363371,36.36362425],[-121.73327614,36.36317449],[-121.7329808,36.36289098],[-121.73276639,36.36257606],[-121.73258004,36.36230235],[-121.73223439,36.36204895],[-121.73194077,36.36179348],[-121.73180747,36.36160194],[-121.73167419,36.36161627],[-121.73160024,36.36162423],[-121.7310914,36.36154601],[-121.73084693,36.36152759],[-121.72985288,36.36118744],[-121.72970005,36.36107243],[-121.7292664,36.36074609],[-121.72916076,36.36066659],[-121.72904811,36.36049218],[-121.72870037,36.35995378],[-121.7284491,36.35982316],[-121.72816334,36.35971494],[-121.72784422,36.35959408],[-121.7273388,36.35957195],[-121.72637658,36.35946951],[-121.72601958,36.35931495],[-121.72561684,36.35897944],[-121.7255608,36.35882112],[-121.72538616,36.3583278],[-121.72527022,36.35813557],[-121.72524769,36.35795834],[-121.72517062,36.3573522],[-121.7251934,36.35715447],[-121.72539338,36.35709816],[-121.72548393,36.35707266],[-121.72559172,36.35684344],[-121.72562759,36.3565749],[-121.72565752,36.35620817],[-121.72587037,36.35513124],[-121.72594602,36.35494547],[-121.72599193,36.35426881],[-121.72608492,36.35408235],[-121.72630812,36.35375015],[-121.72643068,36.35347816],[-121.72642083,36.35302866],[-121.72646265,36.35285829],[-121.72648713,36.35268861],[-121.72628281,36.35247177],[-121.72588691,36.35224845],[-121.72566985,36.35182123],[-121.72537528,36.35097529],[-121.72518321,36.3506736],[-121.72487281,36.35071402],[-121.72449137,36.35072914],[-121.72423849,36.35069854],[-121.72399061,36.35049591],[-121.72375954,36.35030861],[-121.72364334,36.35021443],[-121.72307512,36.34997754],[-121.7229658,36.34993197],[-121.72286146,36.34984021],[-121.72250687,36.34952837],[-121.72214943,36.34907858],[-121.72166518,36.34883063],[-121.72121426,36.34874247],[-121.7207682,36.34865526],[-121.72012706,36.34839946],[-121.71971386,36.34817681],[-121.71931787,36.34800722],[-121.71914293,36.34793229],[-121.71774731,36.3472705],[-121.71666842,36.34638528],[-121.71627597,36.34621803],[-121.71590764,36.3461623],[-121.7157093,36.34604361],[-121.71548213,36.34588897],[-121.71545555,36.34587088],[-121.71524411,36.34582301],[-121.71483527,36.34556556],[-121.71434079,36.34525418],[-121.7138236,36.34503562],[-121.71351785,36.34486494],[-121.71235704,36.34434845],[-121.71194811,36.3441959],[-121.71168128,36.34409397],[-121.71113575,36.34369375],[-121.71079998,36.34331336],[-121.71061475,36.34312384],[-121.71049192,36.34282192],[-121.7104515,36.34272258],[-121.71030269,36.34248381],[-121.70989076,36.34206988],[-121.70985508,36.34205306],[-121.70881754,36.34156396],[-121.7087224,36.34152092],[-121.70838876,36.34137],[-121.70741052,36.34106387],[-121.70775152,36.34088903],[-121.70823736,36.34058866],[-121.70851428,36.34031536],[-121.70854898,36.34028111],[-121.70882932,36.34003103],[-121.7089533,36.33990319],[-121.709042,36.33981174],[-121.70925214,36.33955038],[-121.7094162,36.33938924],[-121.70978575,36.33917782],[-121.70991938,36.33890996],[-121.70997177,36.33880493],[-121.71020263,36.33859898],[-121.7103547,36.33845477],[-121.71046562,36.33834959],[-121.71096156,36.33764109],[-121.7114799,36.33701606],[-121.71173441,36.3366264],[-121.71192212,36.33628156],[-121.71216691,36.33601883],[-121.71244214,36.33568458],[-121.71252865,36.33548487],[-121.71264041,36.33522686],[-121.71289237,36.33479512],[-121.71295824,36.33473339],[-121.71322129,36.33448687],[-121.71346292,36.33405706],[-121.71348804,36.33401238],[-121.71351907,36.33398542],[-121.71411543,36.33346738],[-121.71446506,36.33321455],[-121.71456874,36.33290744],[-121.71458291,36.3320008],[-121.71466235,36.33158994],[-121.7148458,36.33117497],[-121.71524573,36.33089203],[-121.71526998,36.33087293],[-121.7155277,36.33066999],[-121.71580883,36.33043393],[-121.71610305,36.33012705],[-121.71619559,36.32964538],[-121.71638072,36.32925845],[-121.71642972,36.32891909],[-121.71641023,36.3285965],[-121.71635694,36.32806758],[-121.71632491,36.32799356],[-121.71620001,36.32770502],[-121.71608282,36.32748851],[-121.71604355,36.32741597],[-121.71589935,36.32704207],[-121.71589691,36.32700166],[-121.71588579,36.32681766],[-121.71597285,36.32653303],[-121.71595337,36.32621044],[-121.71594321,36.32604213],[-121.71576182,36.32587598],[-121.7157225,36.32583997],[-121.71552082,36.32566517],[-121.7154743,36.32547019],[-121.71549235,36.32542824],[-121.71566976,36.3250165],[-121.71579786,36.32471921],[-121.71588724,36.32454001],[-121.71592924,36.3245268],[-121.7162453,36.32442743],[-121.71649513,36.32424884],[-121.71663672,36.32400423],[-121.71667506,36.32389339],[-121.71673907,36.32370234],[-121.71667047,36.32341241],[-121.71671863,36.32305903],[-121.71690154,36.32277081],[-121.71695659,36.32268407],[-121.71719963,36.32239328],[-121.71743843,36.32203235],[-121.71775458,36.32151371],[-121.71781266,36.32111141],[-121.71781854,36.32107068],[-121.71782807,36.32100467],[-121.71775998,36.32074024],[-121.71759922,36.31980463],[-121.7172952,36.31908557],[-121.7172277,36.31906479],[-121.71701196,36.31899836],[-121.71663614,36.3188164],[-121.71658768,36.31871298],[-121.71639683,36.31830567],[-121.7160209,36.31697084],[-121.71596631,36.3163544],[-121.71585933,36.31602121],[-121.71582337,36.31571332],[-121.71576669,36.31535002],[-121.71555997,36.31509107],[-121.71514358,36.31481229],[-121.7148351,36.3146296],[-121.71476525,36.31458824],[-121.71461042,36.31447818],[-121.71418442,36.31417536],[-121.71378409,36.31358663],[-121.71348311,36.31320487],[-121.71317959,36.31278102],[-121.71320156,36.31256927],[-121.7138178,36.31184195],[-121.71432331,36.31158296],[-121.71449532,36.31126686],[-121.71440146,36.31086285],[-121.71452865,36.31037981],[-121.71465291,36.31013589],[-121.71462497,36.30967304],[-121.71460382,36.3093224],[-121.71469468,36.30893143],[-121.71475642,36.30866449],[-121.71482015,36.30830158],[-121.7146033,36.30787431],[-121.71443928,36.30745902],[-121.71429428,36.30707109],[-121.71431032,36.30676115],[-121.7140911,36.30570637],[-121.71399986,36.30528392],[-121.71392137,36.3049207],[-121.71344163,36.3041664],[-121.7133483,36.30401964],[-121.71335117,36.30398323],[-121.71338414,36.30378907],[-121.71341343,36.30357002],[-121.71342005,36.30352052],[-121.7134587,36.30346902],[-121.71378983,36.30302789],[-121.71414862,36.30235293],[-121.71455813,36.30194309],[-121.71497356,36.30163142],[-121.71527994,36.30123971],[-121.71543545,36.30093832],[-121.71553643,36.30059691],[-121.71559819,36.30004269],[-121.71587814,36.30013339],[-121.71609199,36.30022334],[-121.71628514,36.30025789],[-121.71642714,36.30030851],[-121.7166989,36.3004946],[-121.71688065,36.300628],[-121.71723397,36.3007265],[-121.7175032,36.30087051],[-121.71771959,36.30100255],[-121.71781554,36.3011534],[-121.71793221,36.30135968],[-121.71817017,36.30156115],[-121.71849673,36.30175669],[-121.71856662,36.30179854],[-121.71888614,36.30191243],[-121.71893589,36.30191679],[-121.71921791,36.30194148],[-121.71936246,36.30203418],[-121.71945314,36.30206211],[-121.71964564,36.30212139],[-121.7200987,36.30214564],[-121.72072758,36.30220511],[-121.72145479,36.30230896],[-121.72149848,36.30231519],[-121.721771,36.30234096],[-121.72202255,36.30236475],[-121.72243842,36.30234828],[-121.72269579,36.30229592],[-121.72308791,36.30212401],[-121.72311881,36.30211046],[-121.72330603,36.30204681],[-121.72343116,36.30204185],[-121.7236006,36.30203514],[-121.72388658,36.30200659],[-121.72395233,36.30198222],[-121.72413183,36.30191569],[-121.72463979,36.30169875],[-121.72511769,36.3012721],[-121.72519258,36.30121855],[-121.7253049,36.30120845],[-121.7253973,36.30121201],[-121.7258446,36.30122924],[-121.72599049,36.30121313],[-121.72624144,36.3011854],[-121.72673339,36.30127839],[-121.72681884,36.30129132],[-121.72710151,36.30133409],[-121.72751652,36.30130359],[-121.72796703,36.30128573],[-121.72827893,36.30127337],[-121.72858968,36.30127603],[-121.72873453,36.30133966],[-121.72885752,36.30136291],[-121.72926744,36.30124824],[-121.72937077,36.30101879],[-121.72938993,36.30097626],[-121.72956101,36.30064612],[-121.72963237,36.30039022],[-121.72982839,36.30025861],[-121.73035537,36.29999602],[-121.73068748,36.29974384],[-121.73107446,36.29925048],[-121.73159886,36.2990188],[-121.73229022,36.29869728],[-121.73235904,36.29866528],[-121.73239859,36.29865622],[-121.73302714,36.29851224],[-121.73346829,36.29834009],[-121.73403072,36.29816312],[-121.73432102,36.2980813],[-121.73446932,36.29794888],[-121.73442056,36.29743063],[-121.73458023,36.29719935],[-121.73487512,36.29690646],[-121.73500523,36.2967607],[-121.73507827,36.29653286],[-121.73509423,36.29622292],[-121.73513007,36.29595438],[-121.73508471,36.29549222],[-121.73511545,36.29513953],[-121.73514533,36.2947728],[-121.73517522,36.29440608],[-121.73528018,36.29355836],[-121.73555466,36.29292886],[-121.73597708,36.29244814],[-121.73620265,36.29215801],[-121.73632256,36.29184394],[-121.73646404,36.29159932],[-121.73655524,36.29138482],[-121.73666377,36.29116962],[-121.73672915,36.29081554],[-121.73688201,36.29047206],[-121.73724956,36.29023251],[-121.73765345,36.29001965],[-121.73807681,36.28980085],[-121.73812495,36.28977598],[-121.73865694,36.28957056],[-121.7390946,36.28944222],[-121.73914379,36.2894198],[-121.73922541,36.28938261],[-121.73966918,36.28918039],[-121.74059279,36.28894687],[-121.74127726,36.28877908],[-121.74146591,36.28877158],[-121.74162375,36.2887653],[-121.74171527,36.2887527],[-121.74205431,36.28870601],[-121.74243034,36.28860671],[-121.74273788,36.2885055],[-121.74276035,36.28837562],[-121.7427885,36.28821288],[-121.74298448,36.28800826],[-121.74298649,36.28775512],[-121.74309106,36.2871886],[-121.74320296,36.28702949],[-121.74347875,36.28670923],[-121.74363072,36.28635171],[-121.74386305,36.28617376],[-121.74400449,36.28592913],[-121.74417813,36.28562297],[-121.74420843,36.28556955],[-121.74431783,36.28553511],[-121.74453473,36.28546683],[-121.74456627,36.2854569],[-121.7446164,36.28546826],[-121.74477133,36.28550333],[-121.74483037,36.2855167],[-121.74532905,36.28572181],[-121.74593507,36.28597888],[-121.74674286,36.28616944],[-121.74690405,36.28620746],[-121.74755268,36.28630818],[-121.74793301,36.28639427],[-121.7487676,36.28658319],[-121.74907295,36.28675028],[-121.74941425,36.28693704],[-121.74995043,36.28690163],[-121.75035314,36.2869559],[-121.75052638,36.286949],[-121.75062467,36.28689309],[-121.7508453,36.28676759],[-121.75125766,36.28669493],[-121.75196963,36.28669469],[-121.75224851,36.2867117],[-121.75254643,36.28675607],[-121.75277163,36.2867471],[-121.75314508,36.28660569],[-121.75372299,36.2863999],[-121.75399097,36.28637175],[-121.75415437,36.28635459],[-121.7544912,36.2864677],[-121.75480081,36.28676106],[-121.7550044,36.28691119],[-121.75507204,36.28692739],[-121.75549607,36.28702889],[-121.75570928,36.28707993],[-121.75640478,36.28709438],[-121.75708381,36.28712354],[-121.75775602,36.2870405],[-121.75867161,36.2869618],[-121.75948666,36.28694335],[-121.76043347,36.28680716],[-121.76101991,36.28674158],[-121.76156035,36.28677625],[-121.76197013,36.28666148],[-121.7629811,36.28643836],[-121.76352263,36.28620585],[-121.76424431,36.28578903],[-121.76442269,36.28568988],[-121.76509694,36.28553845],[-121.76590878,36.28518266],[-121.76604644,36.28510582],[-121.76626145,36.28498581],[-121.76663828,36.28490046],[-121.76687567,36.28480662],[-121.76707485,36.28479866],[-121.7672048,36.28479347],[-121.76751234,36.28471088],[-121.76799053,36.2845793],[-121.76821595,36.28428911],[-121.76842597,36.28374648],[-121.76852072,36.28330687],[-121.76871234,36.28303208],[-121.76879233,36.28263524],[-121.76900298,36.28238782],[-121.76933412,36.28224764],[-121.76944309,36.28220151],[-121.7698199,36.28211615],[-121.76996141,36.28212044],[-121.77022002,36.28212828],[-121.7706704,36.28211027],[-121.771081,36.2820095],[-121.77151405,36.28199218],[-121.77174243,36.28191566],[-121.7720806,36.28183177],[-121.77219496,36.28177647],[-121.76326717,36.36976076]]]},"properties":{"OBJECTID":1097688,"COUNTY":"MONTEREY","CITY":"MRY","ZONE_NAME":null,"ZONE_ID":"US-CA-XMY-MRY-F015-C","STATUS":"Evacuation Order","EVENT_TYPE":null,"CRITICAL_INFO":null,"PUBLIC_INFO":null,"EDIT_DATE":1787515278000,"STATEWIDE_LAST_UPDATED":null,"NOTES":"Timber Fire","SHAPE__Area":56493131.97265625,"SHAPE__Length":35824.241907840507,"GlobalID":"0d2fa04e-1ecb-49ae-bc6a-3f3045caa037","CreationDate":1788335714000,"Creator":"CalOES_Scripts","EditDate":1788335714000,"Editor":"CalOES_Scripts"}},{"type":"Feature","id":1097693,"geometry":{"type":"Polygon","coordinates":[[[-119.01663989,36.05561998],[-119.0166333,36.0558772],[-119.01663142,36.05593591],[-119.01556698,36.05586397],[-119.01494685,36.05586337],[-119.01418722,36.05609623],[-119.01308538,36.05643397],[-119.01192945,36.05647877],[-119.00843398,36.05631517],[-119.00793534,36.05620523],[-119.00803219,36.05494595],[-119.00889542,36.05499765],[-119.01047961,36.05559228],[-119.01243157,36.05524922],[-119.01378944,36.05536357],[-119.01458154,36.05547792],[-119.01663989,36.05561998]]]},"properties":{"OBJECTID":1097693,"COUNTY":"TULARE","CITY":"PVL","ZONE_NAME":null,"ZONE_ID":"US-CA-XTU-PVL-E039","STATUS":"Evacuation Order","EVENT_TYPE":null,"CRITICAL_INFO":null,"PUBLIC_INFO":null,"EDIT_DATE":1695249188000,"STATEWIDE_LAST_UPDATED":null,"NOTES":"Flooding","SHAPE__Area":117016.9921875,"SHAPE__Length":2187.5932811268758,"GlobalID":"f5e1b2e3-04f1-4063-91db-1b28d6492ad8","CreationDate":1788335714000,"Creator":"CalOES_Scripts","EditDate":1788335714000,"Editor":"CalOES_Scripts"}},{"type":"Feature","id":1097697,"geometry":{"type":"Polygon","coordinates":[[[-121.80718461,36.28019811],[-121.80395163,36.28540341],[-121.80392722,36.28539838],[-121.80388122,36.28538892],[-121.80354176,36.28523389],[-121.80328796,36.28534252],[-121.80297013,36.2852569],[-121.80282647,36.2852482],[-121.80269126,36.28524001],[-121.80257373,36.28543716],[-121.80250235,36.28555691],[-121.80232376,36.2860421],[-121.80217724,36.28648381],[-121.80194152,36.28688695],[-121.80166513,36.28719331],[-121.80145457,36.28744078],[-121.80131762,36.28775558],[-121.80114763,36.28838101],[-121.80099077,36.28865444],[-121.80078193,36.28892996],[-121.8005151,36.2891094],[-121.80035067,36.28911602],[-121.80027258,36.28911916],[-121.80012937,36.28914587],[-121.79979184,36.2892088],[-121.79957267,36.28931603],[-121.79910925,36.28940497],[-121.79874891,36.2894757],[-121.79809838,36.28962839],[-121.79759429,36.28962055],[-121.79711624,36.28947107],[-121.79632552,36.2893201],[-121.79609672,36.28920266],[-121.79571589,36.2890072],[-121.79540089,36.28899562],[-121.79535039,36.28899377],[-121.79496056,36.28915003],[-121.7946141,36.28916395],[-121.79445819,36.28917022],[-121.79400607,36.28916027],[-121.79351845,36.28913769],[-121.79290956,36.28911998],[-121.79249208,36.28910863],[-121.79212486,36.28906715],[-121.79185003,36.28895653],[-121.79129977,36.28835517],[-121.7908591,36.28796516],[-121.79074272,36.28793128],[-121.79065315,36.2879052],[-121.78981987,36.28772572],[-121.78931321,36.28767576],[-121.78913092,36.28769619],[-121.78872681,36.28774148],[-121.78834742,36.28778483],[-121.78808758,36.28779526],[-121.78784334,36.28777694],[-121.78781243,36.28776938],[-121.78758679,36.2877157],[-121.78726481,36.28768769],[-121.78687239,36.28780185],[-121.78646351,36.28793072],[-121.7861517,36.28794323],[-121.78587196,36.28791228],[-121.78528286,36.28777453],[-121.78469157,36.28763627],[-121.78454492,36.28762527],[-121.78408098,36.28759047],[-121.78359774,36.28741849],[-121.7832541,36.28713156],[-121.78289922,36.28672402],[-121.78227337,36.28614458],[-121.78198685,36.28589959],[-121.78171028,36.28566311],[-121.78150379,36.28548654],[-121.78096439,36.28518481],[-121.78030717,36.28494402],[-121.77968374,36.28468782],[-121.77924657,36.28435386],[-121.77870462,36.28401004],[-121.77860517,36.28393208],[-121.77817571,36.2835954],[-121.777991,36.28343835],[-121.7777178,36.28320603],[-121.77760085,36.2831626],[-121.77727361,36.28304105],[-121.777153,36.28300087],[-121.77696642,36.28294088],[-121.77664316,36.28295383],[-121.77639979,36.28294951],[-121.77609801,36.28287297],[-121.77606468,36.28286452],[-121.77578238,36.28279146],[-121.77550352,36.28277451],[-121.77512414,36.28281781],[-121.77486859,36.28289833],[-121.7747283,36.28287583],[-121.77444978,36.2827235],[-121.77440737,36.28269256],[-121.77409089,36.28244637],[-121.77383928,36.28225063],[-121.77331546,36.28183962],[-121.77305506,36.2816353],[-121.77290817,36.28156762],[-121.77295137,36.28116717],[-121.77285709,36.28090866],[-121.77278793,36.2806182],[-121.77267897,36.28033274],[-121.77238502,36.28011296],[-121.77228399,36.27994846],[-121.77214779,36.27978376],[-121.77210607,36.27943835],[-121.77201159,36.27924576],[-121.77184858,36.27895401],[-121.77179367,36.2786309],[-121.77195711,36.27842228],[-121.77171983,36.2781237],[-121.771634,36.27803721],[-121.77156213,36.27780742],[-121.77172557,36.27767566],[-121.77187539,36.27755488],[-121.77203883,36.27728038],[-121.77212753,36.2770512],[-121.77220227,36.27679726],[-121.77217044,36.27658414],[-121.77201159,36.27630316],[-121.77191295,36.27606518],[-121.77201159,36.27587494],[-121.77210607,36.27556352],[-121.77216141,36.27540279],[-121.77198435,36.27523809],[-121.77149403,36.27499653],[-121.77137145,36.27471104],[-121.77126249,36.27448045],[-121.77103319,36.2742488],[-121.77082665,36.2740083],[-121.77051339,36.27397536],[-121.77007755,36.27384359],[-121.76980516,36.27364595],[-121.76957406,36.27347034],[-121.76976429,36.27327261],[-121.76990049,36.2729981],[-121.76990049,36.27278947],[-121.76969801,36.27263349],[-121.76950489,36.2722875],[-121.76961448,36.27203181],[-121.7696962,36.27159258],[-121.76958724,36.27130708],[-121.76924674,36.27115335],[-121.7689148,36.27091218],[-121.76893348,36.27070314],[-121.76893348,36.27029684],[-121.76897434,36.26986859],[-121.76885176,36.26952818],[-121.7685385,36.26926463],[-121.7682661,36.26903403],[-121.76798008,36.26878147],[-121.76776216,36.2685289],[-121.76735356,36.26815554],[-121.76720374,36.26787003],[-121.76699944,36.2675955],[-121.76682238,36.26721115],[-121.76646826,36.26658521],[-121.76626396,36.26615694],[-121.76580088,36.26523449],[-121.76554211,36.26472933],[-121.76521335,36.26412172],[-121.76495645,36.26407043],[-121.76432993,36.26391668],[-121.76362169,36.26382883],[-121.76319633,36.26381029],[-121.76262743,36.26355428],[-121.76216636,36.26334315],[-121.76136077,36.26309304],[-121.76079307,36.26291062],[-121.76009412,36.26286242],[-121.75933395,36.2627203],[-121.75903176,36.26265377],[-121.75854144,36.26245609],[-121.75804649,36.26221855],[-121.75787483,36.26185521],[-121.7576289,36.26189601],[-121.75734288,36.26195092],[-121.75708089,36.26190712],[-121.75709772,36.26179717],[-121.75705944,36.26147457],[-121.75683895,36.26118217],[-121.75663465,36.26088565],[-121.75664827,36.26065502],[-121.75658017,36.26050127],[-121.75637587,36.26019377],[-121.75625329,36.25997412],[-121.75623967,36.25960072],[-121.75629415,36.25931518],[-121.75667551,36.2591724],[-121.75716673,36.25915609],[-121.75761734,36.25908688],[-121.75783191,36.25860241],[-121.75787483,36.25820445],[-121.75774608,36.25797951],[-121.75833714,36.25822791],[-121.7589228,36.25848051],[-121.75909986,36.25872212],[-121.75954853,36.25900036],[-121.75968552,36.25887588],[-121.75989185,36.25877543],[-121.76008497,36.25870622],[-121.76047548,36.25886489],[-121.76049266,36.25867162],[-121.7603529,36.25832675],[-121.76027118,36.25806317],[-121.760321,36.2578757],[-121.76077161,36.2579103],[-121.76127905,36.25797531],[-121.76157869,36.25792039],[-121.76193281,36.25776664],[-121.76236865,36.25775565],[-121.76269553,36.25774467],[-121.76308904,36.25773728],[-121.76334598,36.25766807],[-121.76313137,36.25743716],[-121.76225163,36.25682023],[-121.76126543,36.25584465],[-121.7605572,36.25524058],[-121.76047548,36.25484519],[-121.76033928,36.25433997],[-121.760421,36.25403244],[-121.76036652,36.25374688],[-121.7603529,36.25330755],[-121.76025756,36.2529451],[-121.76025756,36.25256068],[-121.76020308,36.25216528],[-121.76006688,36.25190168],[-121.7601917,36.25168109],[-121.75995792,36.25077037],[-121.75986258,36.25026512],[-121.75978086,36.25000151],[-121.75942674,36.24959511],[-121.7591952,36.24921068],[-121.7587866,36.24872738],[-121.75854144,36.24835393],[-121.75832352,36.24794752],[-121.75819592,36.24779712],[-121.80718461,36.28019811]]]},"properties":{"OBJECTID":1097697,"COUNTY":"MONTEREY","CITY":"MRY","ZONE_NAME":null,"ZONE_ID":"US-CA-XMY-MRY-F023-B","STATUS":"Evacuation Order","EVENT_TYPE":null,"CRITICAL_INFO":null,"PUBLIC_INFO":null,"EDIT_DATE":1787688014000,"STATEWIDE_LAST_UPDATED":null,"NOTES":"Effective immediately, The Monterey County Sheriff’s Office has issued an Evacuation Order for the following Evacuation Zones: MRY-F015-B and MRY-F023-B","SHAPE__Area":12307321.31640625,"SHAPE__Length":19041.124103352209,"GlobalID":"403c9f73-3971-455f-a734-95a8ef70c6f1","CreationDate":1788335714000,"Creator":"CalOES_Scripts","EditDate":1788335714000,"Editor":"CalOES_Scripts"}},{"type":"Feature","id":1097699,"geometry":{"type":"Polygon","coordinates":[[[-121.70130621,36.37384922],[-121.70051175,36.36014583],[-121.69952079,36.3430537],[-121.67281239,36.34275925],[-121.66675618,36.342689],[-121.66677894,36.34235987],[-121.66703295,36.34215387],[-121.66810895,36.34185687],[-121.66839195,36.34169687],[-121.66844895,36.34155887],[-121.66836395,36.34112387],[-121.66811595,36.34082187],[-121.66779795,36.34043687],[-121.66791095,36.34016187],[-121.66932695,36.33810187],[-121.66952494,36.33736887],[-121.66915695,36.33659087],[-121.66935694,36.33617887],[-121.66980995,36.33572087],[-121.67060194,36.33526287],[-121.67113994,36.33517187],[-121.67220595,36.33513087],[-121.67306395,36.33537787],[-121.67334695,36.33537787],[-121.67377095,36.33508087],[-121.67419595,36.33450787],[-121.67405495,36.33205787],[-121.67413995,36.33180687],[-121.67436595,36.33162287],[-121.67464894,36.33157787],[-121.67515795,36.33221887],[-121.67595095,36.33283687],[-121.67640295,36.33297487],[-121.67696895,36.33299787],[-121.67716695,36.33290587],[-121.67716695,36.33267687],[-121.67631895,36.33182987],[-121.67620495,36.33160087],[-121.67629295,36.33132487],[-121.67679995,36.33107387],[-121.67821495,36.33066187],[-121.67920495,36.33011287],[-121.68022395,36.32972387],[-121.68044995,36.32951787],[-121.68064795,36.32743387],[-121.68073295,36.32731987],[-121.68078995,36.32695287],[-121.68107295,36.32672387],[-121.68268595,36.32665587],[-121.68279895,36.32656387],[-121.68282695,36.32578587],[-121.68293995,36.32560287],[-121.68393095,36.32530487],[-121.68415695,36.32505287],[-121.68415695,36.32443487],[-121.68395895,36.32411487],[-121.68333195,36.32369787],[-121.68268595,36.32326687],[-121.68274295,36.32251187],[-121.68285595,36.32235087],[-121.68407395,36.32196187],[-121.68412995,36.32180187],[-121.68463895,36.32118387],[-121.68483795,36.32106887],[-121.68526195,36.32100087],[-121.68543195,36.32109187],[-121.68591295,36.32171087],[-121.68608195,36.32177887],[-121.68656295,36.32175587],[-121.68676095,36.32159587],[-121.68678995,36.32129787],[-121.68557295,36.31962687],[-121.68458295,36.31880287],[-121.68379095,36.31793287],[-121.68268695,36.31694787],[-121.68265794,36.31667287],[-121.68297094,36.31623787],[-121.68297094,36.31545987],[-121.68277294,36.31477287],[-121.68130094,36.31433787],[-121.68045195,36.31438287],[-121.67968794,36.31424587],[-121.67895294,36.31358187],[-121.67858494,36.31289487],[-121.67844395,36.31250587],[-121.67810494,36.30996387],[-121.67753894,36.30849887],[-121.67567194,36.30831587],[-121.67394694,36.30923087],[-121.67363494,36.30923087],[-121.67329594,36.30895587],[-121.67301294,36.30838387],[-121.67210794,36.30733087],[-121.67185394,36.30723887],[-121.66990194,36.30751287],[-121.66973194,36.30730687],[-121.66978894,36.30556687],[-121.66959094,36.30542987],[-121.66868594,36.30520087],[-121.66837494,36.30492587],[-121.66812094,36.30421587],[-121.66792294,36.30394087],[-121.66761194,36.30371187],[-121.66718794,36.30357487],[-121.66679194,36.30357487],[-121.66631094,36.30339087],[-121.66498094,36.30307087],[-121.66268994,36.30279487],[-121.66206694,36.30231387],[-121.66175594,36.30229087],[-121.66152994,36.30254287],[-121.66121894,36.30265787],[-121.66104894,36.30256587],[-121.66079494,36.30226787],[-121.66068194,36.30153587],[-121.66031394,36.30084887],[-121.66005994,36.30064287],[-121.65935294,36.30071087],[-121.65912594,36.30052787],[-121.65912694,36.30036787],[-121.65887194,36.30009287],[-121.65833494,36.29993187],[-121.65618594,36.29883287],[-121.65508294,36.29880987],[-121.65485594,36.29874087],[-121.65417794,36.29823687],[-121.65236794,36.29738887],[-121.65188694,36.29734287],[-121.65129294,36.29759487],[-121.65067094,36.29766287],[-121.64999194,36.29754887],[-121.64877594,36.29766287],[-121.64837994,36.29802887],[-121.64826594,36.29837187],[-121.64829494,36.29869287],[-121.64854894,36.29917387],[-121.64849194,36.29951687],[-121.64812394,36.29988287],[-121.64778494,36.30008887],[-121.64696394,36.30011187],[-121.64588994,36.29999687],[-121.64554994,36.30008787],[-121.64529594,36.30027187],[-121.64523894,36.30054587],[-121.64535194,36.30098087],[-121.64537994,36.30143887],[-121.64520894,36.30159887],[-121.64492594,36.30166787],[-121.64467194,36.30162187],[-121.64379494,36.30111787],[-121.64277694,36.30093487],[-121.64170194,36.30056787],[-121.64127794,36.30054487],[-121.64099494,36.30061287],[-121.64079694,36.30054487],[-121.64014694,36.30001787],[-121.63912894,36.29997087],[-121.63861994,36.29983387],[-121.63796994,36.29953587],[-121.63760194,36.29955887],[-121.63723394,36.29997087],[-121.63709194,36.30001587],[-121.63678094,36.30031387],[-121.63641294,36.30127487],[-121.63627094,36.30134387],[-121.63477194,36.30127487],[-121.63214194,36.30127287],[-121.62976594,36.30053887],[-121.62883293,36.30010387],[-121.62860694,36.30003487],[-121.62753193,36.29932487],[-121.62606793,36.29861587],[-121.62545193,36.29847887],[-121.62378293,36.29831987],[-121.62330193,36.29809087],[-121.62154793,36.29664987],[-121.62050093,36.29612387],[-121.61908593,36.29573487],[-121.61874693,36.29550587],[-121.61874693,36.29534587],[-121.62086593,36.29330687],[-121.62202493,36.29252787],[-121.62227993,36.29220787],[-121.62329593,36.29005487],[-121.62343593,36.28852087],[-121.62284193,36.28787987],[-121.62261593,36.28739887],[-121.62170993,36.28597987],[-121.62074793,36.28520187],[-121.62040793,36.28462987],[-121.62035093,36.28371387],[-121.61913809,36.28224255],[-121.61961717,36.28214346],[-121.62018825,36.2820616],[-121.62094415,36.28205118],[-121.6210897,36.28216081],[-121.62161938,36.28255979],[-121.62215562,36.28299634],[-121.62268147,36.28309478],[-121.62298377,36.28315138],[-121.62365158,36.28330864],[-121.62438159,36.28363509],[-121.62497041,36.28380815],[-121.62533552,36.28384029],[-121.62581498,36.28375967],[-121.62614034,36.28370452],[-121.62641482,36.28368054],[-121.62676642,36.28375639],[-121.6274442,36.28388829],[-121.62797675,36.28424418],[-121.62861526,36.28475217],[-121.62915632,36.28509375],[-121.62961742,36.28528078],[-121.62987413,36.28534514],[-121.63006411,36.28540306],[-121.63041085,36.28541887],[-121.63081701,36.28538064],[-121.63117019,36.28520026],[-121.6316876,36.28475781],[-121.63204701,36.28402629],[-121.63233702,36.2835581],[-121.63265169,36.28305543],[-121.63289334,36.28268256],[-121.63312869,36.28214275],[-121.63320318,36.2819719],[-121.63318374,36.28154641],[-121.63318497,36.28108476],[-121.63321243,36.2808045],[-121.63312223,36.28051996],[-121.63341266,36.28007193],[-121.6337285,36.27964373],[-121.63456552,36.27925907],[-121.63516096,36.27862923],[-121.63594599,36.27829856],[-121.63707615,36.2778556],[-121.63746308,36.27755458],[-121.6378504,36.2772468],[-121.63816289,36.27706131],[-121.63848059,36.27684526],[-121.63889362,36.27676528],[-121.63893721,36.27675685],[-121.63932465,36.2771668],[-121.63980905,36.27742916],[-121.64012588,36.2775012],[-121.64055982,36.27749838],[-121.64114552,36.27741937],[-121.64175671,36.2771847],[-121.64218249,36.2770312],[-121.64236873,36.27696405],[-121.6431853,36.27667921],[-121.64403958,36.27644316],[-121.64407366,36.27643374],[-121.64473114,36.27639409],[-121.64480109,36.27640575],[-121.64508012,36.27645225],[-121.64541511,36.27650807],[-121.64612223,36.27671955],[-121.64715444,36.27723855],[-121.64746486,36.27739837],[-121.64769341,36.27744571],[-121.64776046,36.27743625],[-121.64796893,36.27740686],[-121.64886395,36.27727357],[-121.64921293,36.27730216],[-121.64930954,36.2773066],[-121.64954376,36.27731739],[-121.6499347,36.27717562],[-121.65032899,36.27708995],[-121.65071827,36.27692013],[-121.65138056,36.27666936],[-121.65194307,36.27649277],[-121.65227139,36.27646591],[-121.6524041,36.27648734],[-121.65255191,36.27651121],[-121.65300586,36.27684501],[-121.6533782,36.27726634],[-121.65360361,36.2775528],[-121.65389999,36.27786461],[-121.65425084,36.27821648],[-121.65488056,36.27858558],[-121.65555892,36.27889655],[-121.65636502,36.27901975],[-121.65723708,36.27908414],[-121.6578618,36.27936907],[-121.65825045,36.27948043],[-121.65922752,36.27985001],[-121.65961868,36.28000345],[-121.66002801,36.28017024],[-121.66024496,36.28027225],[-121.66033172,36.28031304],[-121.66067593,36.28055267],[-121.66092933,36.28072554],[-121.66108321,36.28080576],[-121.66118023,36.28085634],[-121.66125007,36.28088335],[-121.66140218,36.2809422],[-121.66155241,36.2809824],[-121.66221971,36.28081573],[-121.66247671,36.28061638],[-121.66261673,36.28052209],[-121.66274172,36.28054226],[-121.66296795,36.28067562],[-121.66339527,36.28072761],[-121.66382193,36.28089371],[-121.66405216,36.28096907],[-121.66423461,36.28111659],[-121.66479426,36.28147432],[-121.66540446,36.28209721],[-121.66560089,36.28218794],[-121.66569567,36.28221823],[-121.66614967,36.28236332],[-121.6675046,36.28266181],[-121.66773485,36.28273716],[-121.66816069,36.28288922],[-121.66868629,36.28296707],[-121.66911214,36.28311912],[-121.66972353,36.28317955],[-121.66986548,36.28323024],[-121.66993872,36.28329004],[-121.67035838,36.28363273],[-121.67052855,36.28386508],[-121.67053901,36.28389009],[-121.67060957,36.28405874],[-121.67087783,36.28418884],[-121.67147392,36.2841655],[-121.67172675,36.2841556],[-121.67232258,36.28423021],[-121.6724966,36.28425199],[-121.67289591,36.28425041],[-121.67322849,36.28426425],[-121.67363446,36.28440426],[-121.67375993,36.28446908],[-121.67406451,36.28462643],[-121.6743121,36.28475233],[-121.67479179,36.28499625],[-121.67483464,36.28501804],[-121.67517053,36.28511736],[-121.67571683,36.28525061],[-121.67615499,36.28531779],[-121.67682258,36.28544628],[-121.67703048,36.28543813],[-121.6771171,36.28543473],[-121.67721183,36.28527637],[-121.67740855,36.28503349],[-121.67747057,36.28495691],[-121.67758694,36.28485889],[-121.67776816,36.28470624],[-121.67794783,36.28451642],[-121.67807032,36.28442889],[-121.67811437,36.28439741],[-121.67830075,36.28431981],[-121.67844354,36.28438451],[-121.6786467,36.28458743],[-121.67879453,36.28473629],[-121.67892624,36.28481202],[-121.67904631,36.28488107],[-121.67931947,36.28501316],[-121.67968848,36.28516519],[-121.67988577,36.28526993],[-121.68010875,36.28540449],[-121.68019205,36.28545475],[-121.68024222,36.2854583],[-121.68039743,36.28540452],[-121.68062685,36.28546582],[-121.68117569,36.28564111],[-121.68133665,36.28571916],[-121.68155043,36.28580919],[-121.68177715,36.28594411],[-121.68183855,36.28598065],[-121.68209034,36.28612543],[-121.68239916,36.28619988],[-121.68262156,36.28625351],[-121.68274229,36.28628261],[-121.68286524,36.28630591],[-121.6829882,36.2863292],[-121.6832548,36.28643121],[-121.68337604,36.28653802],[-121.6835298,36.28667349],[-121.68381793,36.28684495],[-121.68414491,36.28708518],[-121.6847723,36.28741204],[-121.6852108,36.28777442],[-121.6855674,36.28792913],[-121.68560289,36.2879418],[-121.68613526,36.28813178],[-121.68647285,36.28825912],[-121.68715016,36.2884128],[-121.68745822,36.28847348],[-121.68781358,36.28843539],[-121.68787235,36.28842909],[-121.68816857,36.28844557],[-121.68874368,36.2884792],[-121.68893214,36.28852549],[-121.68899044,36.2885398],[-121.68930636,36.28838703],[-121.68949675,36.28829495],[-121.68962249,36.28819522],[-121.68964595,36.28817661],[-121.68987959,36.28830802],[-121.69018759,36.28852087],[-121.69041244,36.288627],[-121.69054504,36.28868959],[-121.69102376,36.28885354],[-121.69144415,36.28883701],[-121.69150888,36.28883446],[-121.6921178,36.2888527],[-121.69215435,36.28886048],[-121.69219864,36.28886992],[-121.69245204,36.28892391],[-121.69323926,36.28901948],[-121.69337955,36.28904208],[-121.6934053,36.28918166],[-121.693734,36.28944992],[-121.6942114,36.28973714],[-121.69423848,36.28975343],[-121.69442241,36.2897871],[-121.69487063,36.28986915],[-121.69591306,36.29016555],[-121.69649492,36.29031136],[-121.69656679,36.29034983],[-121.69676408,36.29045542],[-121.69693086,36.29045473],[-121.69716341,36.29045376],[-121.69737722,36.29054376],[-121.69768272,36.2907145],[-121.69796836,36.29084385],[-121.69818132,36.29091981],[-121.69848766,36.29110458],[-121.69855365,36.29112812],[-121.69877162,36.29120587],[-121.69901064,36.29113741],[-121.69928381,36.29105917],[-121.69971949,36.29108418],[-121.70005037,36.29109927],[-121.70047125,36.29116704],[-121.70059786,36.29116845],[-121.7007493,36.29117015],[-121.7010578,36.29110175],[-121.70147277,36.29107134],[-121.70192409,36.29106761],[-121.70231201,36.2911648],[-121.70255878,36.29122537],[-121.70281924,36.29132943],[-121.70287908,36.29135334],[-121.7031005,36.29156956],[-121.70322399,36.29163253],[-121.70327966,36.29166091],[-121.7033528,36.2916634],[-121.70347109,36.29166742],[-121.7035089,36.29170615],[-121.70356362,36.29176219],[-121.70345584,36.29199139],[-121.70343469,36.29221717],[-121.70341501,36.29228532],[-121.70334845,36.29251582],[-121.70333788,36.29262871],[-121.70343451,36.29274983],[-121.7035445,36.29288769],[-121.7038931,36.29319731],[-121.70406086,36.29338753],[-121.70420071,36.29369132],[-121.70444367,36.29397699],[-121.70444154,36.29423014],[-121.70450618,36.29443848],[-121.70467647,36.29467077],[-121.70513242,36.29503239],[-121.70519791,36.29525476],[-121.70532848,36.29540426],[-121.70547807,36.29558113],[-121.70581994,36.29577854],[-121.70610393,36.29587981],[-121.70634775,36.29617949],[-121.70636177,36.29621964],[-121.70641071,36.29635978],[-121.70675209,36.29667496],[-121.70696304,36.29659106],[-121.70742793,36.29623529],[-121.70759191,36.29607417],[-121.70782012,36.29582615],[-121.7079917,36.29579126],[-121.70826893,36.29578032],[-121.70855037,36.29583951],[-121.709153,36.29604068],[-121.70919428,36.29606172],[-121.70951137,36.29622336],[-121.70992552,36.29617889],[-121.71023655,36.29615255],[-121.71058816,36.29622302],[-121.71087486,36.29627162],[-121.71099175,36.29629144],[-121.71137632,36.29633249],[-121.7117947,36.29635815],[-121.71208062,36.2964332],[-121.71225618,36.29652269],[-121.71253425,36.29652576],[-121.71291375,36.29648265],[-121.7131641,36.29641091],[-121.71325521,36.29638481],[-121.71358273,36.29634375],[-121.71373867,36.29633759],[-121.71399055,36.29648228],[-121.7142533,36.29672309],[-121.71428469,36.29675185],[-121.71436988,36.2968017],[-121.71454264,36.2969028],[-121.71468364,36.29703133],[-121.71469152,36.2970592],[-121.71486033,36.29765701],[-121.71511224,36.29837813],[-121.71530203,36.298933],[-121.71545209,36.29940509],[-121.71546624,36.29950788],[-121.71559819,36.30004269],[-121.71553643,36.30059691],[-121.71543545,36.30093832],[-121.71527994,36.30123971],[-121.71497356,36.30163142],[-121.71455813,36.30194309],[-121.71414862,36.30235293],[-121.71378983,36.30302789],[-121.7134587,36.30346902],[-121.71342005,36.30352052],[-121.71341343,36.30357002],[-121.71338414,36.30378907],[-121.71335117,36.30398323],[-121.7133483,36.30401964],[-121.71344163,36.3041664],[-121.71392137,36.3049207],[-121.71399986,36.30528392],[-121.7140911,36.30570637],[-121.71431032,36.30676115],[-121.71429428,36.30707109],[-121.71443928,36.30745902],[-121.7146033,36.30787431],[-121.71482015,36.30830158],[-121.71475642,36.30866449],[-121.71469468,36.30893143],[-121.71460382,36.3093224],[-121.71462497,36.30967304],[-121.71465291,36.31013589],[-121.71452865,36.31037981],[-121.71440146,36.31086285],[-121.71449532,36.31126686],[-121.71432331,36.31158296],[-121.7138178,36.31184195],[-121.71320156,36.31256927],[-121.71317959,36.31278102],[-121.71348311,36.31320487],[-121.71378409,36.31358663],[-121.71418442,36.31417536],[-121.71461042,36.31447818],[-121.71476525,36.31458824],[-121.7148351,36.3146296],[-121.71514358,36.31481229],[-121.71555997,36.31509107],[-121.71576669,36.31535002],[-121.71582337,36.31571332],[-121.71585933,36.31602121],[-121.71596631,36.3163544],[-121.7160209,36.31697084],[-121.71639683,36.31830567],[-121.71658768,36.31871298],[-121.71663614,36.3188164],[-121.71701196,36.31899836],[-121.7172277,36.31906479],[-121.7172952,36.31908557],[-121.71759922,36.31980463],[-121.71775998,36.32074024],[-121.71782807,36.32100467],[-121.71781854,36.32107068],[-121.71781266,36.32111141],[-121.71775458,36.32151371],[-121.71743843,36.32203235],[-121.71719963,36.32239328],[-121.71695659,36.32268407],[-121.71690154,36.32277081],[-121.71671863,36.32305903],[-121.71667047,36.32341241],[-121.71673907,36.32370234],[-121.71667506,36.32389339],[-121.71663672,36.32400423],[-121.71649513,36.32424884],[-121.7162453,36.32442743],[-121.71592924,36.3245268],[-121.71588724,36.32454001],[-121.71579786,36.32471921],[-121.71566976,36.3250165],[-121.71549235,36.32542824],[-121.7154743,36.32547019],[-121.71552082,36.32566517],[-121.7157225,36.32583997],[-121.71576182,36.32587598],[-121.71594321,36.32604213],[-121.71595337,36.32621044],[-121.71597285,36.32653303],[-121.71588579,36.32681766],[-121.71589691,36.32700166],[-121.71589935,36.32704207],[-121.71604355,36.32741597],[-121.71608282,36.32748851],[-121.71620001,36.32770502],[-121.71632491,36.32799356],[-121.71635694,36.32806758],[-121.71641023,36.3285965],[-121.71642972,36.32891909],[-121.71638072,36.32925845],[-121.71619559,36.32964538],[-121.71610305,36.33012705],[-121.71580883,36.33043393],[-121.7155277,36.33066999],[-121.71526998,36.33087293],[-121.71524573,36.33089203],[-121.7148458,36.33117497],[-121.71466235,36.33158994],[-121.71458291,36.3320008],[-121.71456874,36.33290744],[-121.71446506,36.33321455],[-121.71411543,36.33346738],[-121.71351907,36.33398542],[-121.71348804,36.33401238],[-121.71346292,36.33405706],[-121.71322129,36.33448687],[-121.71295824,36.33473339],[-121.71289237,36.33479512],[-121.71264041,36.33522686],[-121.71252865,36.33548487],[-121.71244214,36.33568458],[-121.71216691,36.33601883],[-121.71192212,36.33628156],[-121.71173441,36.3366264],[-121.7114799,36.33701606],[-121.71096156,36.33764109],[-121.71046562,36.33834959],[-121.7103547,36.33845477],[-121.71020263,36.33859898],[-121.70997177,36.33880493],[-121.70991938,36.33890996],[-121.70978575,36.33917782],[-121.7094162,36.33938924],[-121.70925214,36.33955038],[-121.709042,36.33981174],[-121.7089533,36.33990319],[-121.70882932,36.34003103],[-121.70854898,36.34028111],[-121.70851428,36.34031536],[-121.70823736,36.34058866],[-121.70775152,36.34088903],[-121.70741052,36.34106387],[-121.70838876,36.34137],[-121.7087224,36.34152092],[-121.70881754,36.34156396],[-121.70985508,36.34205306],[-121.70989076,36.34206988],[-121.71030269,36.34248381],[-121.7104515,36.34272258],[-121.71049192,36.34282192],[-121.71061475,36.34312384],[-121.71079998,36.34331336],[-121.71113575,36.34369375],[-121.71168128,36.34409397],[-121.71194811,36.3441959],[-121.71235704,36.34434845],[-121.71351785,36.34486494],[-121.7138236,36.34503562],[-121.71434079,36.34525418],[-121.71483527,36.34556556],[-121.71524411,36.34582301],[-121.71545555,36.34587088],[-121.71548213,36.34588897],[-121.7157093,36.34604361],[-121.71590764,36.3461623],[-121.71627597,36.34621803],[-121.71666842,36.34638528],[-121.71774731,36.3472705],[-121.71914293,36.34793229],[-121.71931787,36.34800722],[-121.71971386,36.34817681],[-121.72012706,36.34839946],[-121.7207682,36.34865526],[-121.72121426,36.34874247],[-121.72166518,36.34883063],[-121.72214943,36.34907858],[-121.72250687,36.34952837],[-121.72286146,36.34984021],[-121.7229658,36.34993197],[-121.72307512,36.34997754],[-121.72364334,36.35021443],[-121.72375954,36.35030861],[-121.72399061,36.35049591],[-121.72423849,36.35069854],[-121.72449137,36.35072914],[-121.72487281,36.35071402],[-121.72518321,36.3506736],[-121.72537528,36.35097529],[-121.72566985,36.35182123],[-121.72588691,36.35224845],[-121.72628281,36.35247177],[-121.72648713,36.35268861],[-121.72646265,36.35285829],[-121.72642083,36.35302866],[-121.72643068,36.35347816],[-121.72630812,36.35375015],[-121.72608492,36.35408235],[-121.72599193,36.35426881],[-121.72594602,36.35494547],[-121.72587037,36.35513124],[-121.72565752,36.35620817],[-121.72562759,36.3565749],[-121.72559172,36.35684344],[-121.72548393,36.35707266],[-121.72539338,36.35709816],[-121.7251934,36.35715447],[-121.72517062,36.3573522],[-121.72524769,36.35795834],[-121.72527022,36.35813557],[-121.72538616,36.3583278],[-121.7255608,36.35882112],[-121.72561684,36.35897944],[-121.72601958,36.35931495],[-121.72637658,36.35946951],[-121.7273388,36.35957195],[-121.72784422,36.35959408],[-121.72816334,36.35971494],[-121.7284491,36.35982316],[-121.72870037,36.35995378],[-121.72904811,36.36049218],[-121.72916076,36.36066659],[-121.7292664,36.36074609],[-121.72970005,36.36107243],[-121.72985288,36.36118744],[-121.73084693,36.36152759],[-121.7310914,36.36154601],[-121.73160024,36.36162423],[-121.73167419,36.36161627],[-121.73180747,36.36160194],[-121.73194077,36.36179348],[-121.73223439,36.36204895],[-121.73258004,36.36230235],[-121.73276639,36.36257606],[-121.7329808,36.36289098],[-121.73327614,36.36317449],[-121.73363371,36.36362425],[-121.73381021,36.36395466],[-121.73387331,36.36413492],[-121.73438812,36.3643113],[-121.73473495,36.36429753],[-121.73499235,36.3642873],[-121.73506443,36.36428444],[-121.73551956,36.36433666],[-121.73617294,36.3645411],[-121.73647643,36.36463606],[-121.73675474,36.36463906],[-121.73736169,36.36461494],[-121.73780915,36.36454092],[-121.73821055,36.36456714],[-121.73867506,36.36477362],[-121.73909637,36.36484123],[-121.7396166,36.36482054],[-121.73984033,36.36478353],[-121.74016362,36.36471773],[-121.74087057,36.36457385],[-121.74140047,36.36442625],[-121.74183059,36.3643529],[-121.74218536,36.36418414],[-121.74275421,36.36410527],[-121.74312947,36.36408188],[-121.74337763,36.36406641],[-121.74398114,36.36398615],[-121.7445406,36.363753],[-121.74496415,36.36328625],[-121.74536155,36.36296114],[-121.74571631,36.36279236],[-121.74627319,36.36251713],[-121.74632734,36.36248731],[-121.74657593,36.36235043],[-121.74673626,36.36241434],[-121.74677433,36.36247293],[-121.74698559,36.36279806],[-121.74732872,36.36300934],[-121.74747351,36.36303036],[-121.7477847,36.36307554],[-121.74788933,36.36313351],[-121.74823444,36.36332474],[-121.74860458,36.36340842],[-121.74903756,36.36333878],[-121.74906936,36.36333366],[-121.74941702,36.36333387],[-121.74976462,36.36336932],[-121.75001173,36.36339453],[-121.750493,36.36330506],[-121.75058079,36.3632631],[-121.75081392,36.36315168],[-121.75087815,36.36313078],[-121.75125709,36.36300748],[-121.75159193,36.36279731],[-121.75192763,36.36260116],[-121.75211837,36.36259356],[-121.75254138,36.36268916],[-121.75301897,36.36282477],[-121.75336579,36.36281094],[-121.75340069,36.36281883],[-121.75352442,36.3628468],[-121.7539489,36.36325164],[-121.75433613,36.36361578],[-121.75459344,36.36384453],[-121.7548278,36.36455219],[-121.75520175,36.36526834],[-121.75544172,36.36549777],[-121.7558793,36.36583178],[-121.75608343,36.36601515],[-121.7561059,36.36603535],[-121.7562839,36.36619523],[-121.75700275,36.36715067],[-121.75722454,36.36736677],[-121.75762573,36.36767411],[-121.75817657,36.36843942],[-121.75856648,36.36881225],[-121.7590674,36.36907869],[-121.75938051,36.36920858],[-121.75953112,36.36927106],[-121.76000911,36.36932396],[-121.76009119,36.36933305],[-121.76046775,36.3694304],[-121.7606564,36.36947918],[-121.76111072,36.36951727],[-121.76159628,36.36949787],[-121.76196646,36.3695815],[-121.76221438,36.36965595],[-121.7625291,36.36968555],[-121.76288022,36.36974182],[-121.76359362,36.36977675],[-121.76362192,36.37002625],[-121.76353506,36.37020799],[-121.76346645,36.37048803],[-121.76347913,36.3706955],[-121.76337085,36.3709276],[-121.76334929,36.37117606],[-121.76336016,36.37135389],[-121.76321644,36.37160722],[-121.76323891,36.37177468],[-121.76322414,36.37193373],[-121.76317304,36.37250028],[-121.76333249,36.373306],[-121.76340067,36.37362019],[-121.76327595,36.37378363],[-121.76283842,36.3740388],[-121.76261958,36.37426542],[-121.76232563,36.37446533],[-121.76206531,36.37461439],[-121.76176713,36.37474514],[-121.76119822,36.37505507],[-121.76088164,36.3752856],[-121.76076053,36.37550831],[-121.76045842,36.37597594],[-121.75992917,36.3763338],[-121.75954968,36.37653713],[-121.75895647,36.37664995],[-121.75824304,36.3765992],[-121.75746159,36.37683837],[-121.75717862,36.37701803],[-121.75689702,36.37701936],[-121.75678164,36.37693484],[-121.75672902,36.37676588],[-121.75672071,36.3767392],[-121.75655585,36.37664674],[-121.7562999,36.37666686],[-121.75604454,36.37669685],[-121.75545132,36.37680966],[-121.75532553,36.37682958],[-121.75469927,36.37692879],[-121.75433534,36.37692837],[-121.75399022,36.3767491],[-121.75362326,36.37655576],[-121.75302823,36.37663891],[-121.7526341,36.37680318],[-121.75255484,36.37690701],[-121.75225984,36.37729348],[-121.75174533,36.37749226],[-121.75101211,36.37771956],[-121.75005457,36.37808455],[-121.74968997,36.37807489],[-121.74956416,36.37801923],[-121.74930887,36.37790629],[-121.74871735,36.37776295],[-121.74812472,36.37756723],[-121.74753527,36.37754119],[-121.74673872,36.3775333],[-121.74573706,36.37737511],[-121.74524494,36.37713721],[-121.74493126,36.37681298],[-121.74475,36.37665183],[-121.74447881,36.37662301],[-121.74443725,36.37662829],[-121.74379823,36.37670952],[-121.7428747,36.37662743],[-121.74219853,36.37658501],[-121.74157363,36.37658016],[-121.74124616,36.3766328],[-121.74088445,36.37672642],[-121.740817,36.37674139],[-121.74034066,36.37684708],[-121.73969977,36.37707309],[-121.73954932,36.37712615],[-121.73873894,36.37749509],[-121.73820257,36.37753623],[-121.73782382,36.37755128],[-121.73726,36.37754398],[-121.73686222,36.37764893],[-121.73627816,36.37771175],[-121.73576502,36.37773214],[-121.73536804,36.37764888],[-121.73523531,36.37756052],[-121.73508725,36.37746196],[-121.73490098,36.37741984],[-121.7346445,36.37749155],[-121.73461195,36.37750065],[-121.73442427,36.37763685],[-121.73414326,36.37764801],[-121.7335556,36.37765154],[-121.73286518,36.377778],[-121.73259197,36.37791759],[-121.7324159,36.37804343],[-121.73201069,36.37822788],[-121.73177713,36.37841542],[-121.73150107,36.37891166],[-121.73125267,36.37925825],[-121.73085284,36.37953162],[-121.73038975,36.3795698],[-121.72989982,36.37956944],[-121.72984725,36.37954754],[-121.72966108,36.37946997],[-121.72924206,36.37942718],[-121.7291389,36.37943127],[-121.7288633,36.37944221],[-121.72782355,36.37946365],[-121.72692493,36.37941977],[-121.72681626,36.37941446],[-121.72599345,36.37937777],[-121.72594769,36.37937443],[-121.72537834,36.37933283],[-121.7247963,36.37922716],[-121.72416478,36.37911354],[-121.72354345,36.37916787],[-121.72296416,36.37930968],[-121.72250609,36.37922879],[-121.72213535,36.37917415],[-121.72174821,36.37905084],[-121.72144479,36.37889449],[-121.72129282,36.37882291],[-121.72119264,36.37877573],[-121.72100694,36.37875596],[-121.72078585,36.37873242],[-121.72033378,36.37875033],[-121.71972227,36.37876464],[-121.71930281,36.37872741],[-121.71856478,36.37866191],[-121.71843161,36.37865377],[-121.7181714,36.37863787],[-121.71813907,36.37862793],[-121.7177692,36.37851294],[-121.71743881,36.37827071],[-121.71721231,36.37817074],[-121.7160861,36.37797761],[-121.7160068,36.37794651],[-121.71528322,36.37766275],[-121.71481919,36.37748303],[-121.71464497,36.37743225],[-121.71451998,36.37739583],[-121.71439227,36.37730945],[-121.71435397,36.37728355],[-121.71408484,36.37708621],[-121.71405231,36.37709234],[-121.71395164,36.37711129],[-121.71362327,36.37735206],[-121.71331902,36.3773839],[-121.71265864,36.37740011],[-121.71235856,36.37750111],[-121.71189161,36.37767803],[-121.71114124,36.37782654],[-121.71086201,36.37786728],[-121.7106056,36.37793553],[-121.71051246,36.37796033],[-121.71047124,36.37797559],[-121.71043341,36.3779896],[-121.71021297,36.3780712],[-121.71010858,36.3781326],[-121.70986999,36.37827293],[-121.70959105,36.37828395],[-121.70951565,36.37828693],[-121.70940204,36.37835488],[-121.70930289,36.37841418],[-121.70890863,36.37857831],[-121.70805724,36.37887935],[-121.70742339,36.37913217],[-121.70709587,36.37918473],[-121.70678595,36.37932571],[-121.70651029,36.37942573],[-121.70625068,36.37943598],[-121.70619232,36.37943792],[-121.70560188,36.37936006],[-121.70463696,36.37923229],[-121.70435026,36.37910699],[-121.70415893,36.37902337],[-121.70400149,36.37902099],[-121.70325178,36.37900965],[-121.70277525,36.37902845],[-121.70242926,36.37918075],[-121.70165657,36.37964909],[-121.70164298,36.37965733],[-121.70130621,36.37384922]]]},"properties":{"OBJECTID":1097699,"COUNTY":"MONTEREY","CITY":"MRY","ZONE_NAME":null,"ZONE_ID":"US-CA-XMY-MRY-D082","STATUS":"Evacuation Order","EVENT_TYPE":null,"CRITICAL_INFO":null,"PUBLIC_INFO":null,"EDIT_DATE":1787515278000,"STATEWIDE_LAST_UPDATED":null,"NOTES":"Timber Fire","SHAPE__Area":67680643.765625,"SHAPE__Length":64047.880592112917,"GlobalID":"da3ce06e-d589-43b2-a73d-3588d03a8d8e","CreationDate":1788335714000,"Creator":"CalOES_Scripts","EditDate":1788335714000,"Editor":"CalOES_Scripts"}},{"type":"Feature","id":1097706,"geometry":{"type":"Polygon","coordinates":[[[-119.03924344,36.0602806],[-119.03849882,36.06017579],[-119.03791805,36.06009404],[-119.03579421,36.0595524],[-119.03512778,36.05938244],[-119.03301385,36.05880857],[-119.02918145,36.05752364],[-119.02613127,36.05670178],[-119.02551765,36.05653644],[-119.01969569,36.05614299],[-119.01779816,36.05601476],[-119.01691895,36.05595534],[-119.01663142,36.05593591],[-119.0166333,36.0558772],[-119.01664,36.0556156],[-119.0166448,36.0554274],[-119.01664842,36.05532994],[-119.01836866,36.05537553],[-119.02227243,36.05566244],[-119.02415334,36.05586328],[-119.02635364,36.05620757],[-119.02798613,36.05649447],[-119.02968959,36.05686745],[-119.03199636,36.05792898],[-119.03341592,36.05835933],[-119.03508389,36.05861754],[-119.0360066,36.05893312],[-119.03778104,36.05962167],[-119.03925238,36.05968215],[-119.03924344,36.0602806]]]},"properties":{"OBJECTID":1097706,"COUNTY":"TULARE","CITY":"PVL","ZONE_NAME":null,"ZONE_ID":"US-CA-XTU-PVL-E034","STATUS":"Evacuation Order","EVENT_TYPE":null,"CRITICAL_INFO":null,"PUBLIC_INFO":null,"EDIT_DATE":1695249188000,"STATEWIDE_LAST_UPDATED":null,"NOTES":"Flooding","SHAPE__Area":217621.41796875,"SHAPE__Length":5393.0078694906724,"GlobalID":"7f617f43-831e-400c-b392-fe1e66343afe","CreationDate":1788335714000,"Creator":"CalOES_Scripts","EditDate":1788335714000,"Editor":"CalOES_Scripts"}},{"type":"Feature","id":1097718,"geometry":{"type":"Polygon","coordinates":[[[-121.78615033,36.37645881],[-121.78568238,36.37632542],[-121.78525915,36.37607936],[-121.78480304,36.37576649],[-121.7836616,36.37522383],[-121.78308242,36.37485982],[-121.78282348,36.37471484],[-121.78268813,36.37459874],[-121.78236683,36.3742381],[-121.78203302,36.37379712],[-121.78166339,36.37316313],[-121.78111935,36.37265801],[-121.78050658,36.37233907],[-121.78010445,36.37210109],[-121.77954307,36.37174771],[-121.7790447,36.3714102],[-121.77823235,36.37103536],[-121.77773926,36.37092499],[-121.77726547,36.370747],[-121.77681513,36.37066916],[-121.7767778,36.37065408],[-121.77650669,36.37043025],[-121.77630565,36.36982319],[-121.77616895,36.36929443],[-121.77615521,36.36907004],[-121.77593868,36.36865695],[-121.775586,36.36829149],[-121.77499743,36.36804795],[-121.77496461,36.36804927],[-121.77445985,36.36806948],[-121.77407835,36.36808477],[-121.77365255,36.36822835],[-121.77322778,36.36810477],[-121.77284544,36.36794952],[-121.77249455,36.36786453],[-121.77225341,36.36780637],[-121.77176922,36.36776344],[-121.7713795,36.36772889],[-121.77044019,36.36745043],[-121.77032808,36.36741818],[-121.76989625,36.36735243],[-121.76965434,36.36726642],[-121.76943423,36.36718815],[-121.7691966,36.36728201],[-121.76904143,36.36739622],[-121.76891381,36.36749015],[-121.76855461,36.36787005],[-121.76824762,36.36796668],[-121.7678522,36.36803874],[-121.76735016,36.36807288],[-121.7671151,36.36820881],[-121.76664412,36.36846664],[-121.7662226,36.36868032],[-121.76582717,36.36875237],[-121.76543689,36.36890857],[-121.76500764,36.36899602],[-121.76452016,36.36926857],[-121.76421487,36.36939324],[-121.76377942,36.36966371],[-121.76359362,36.36977675],[-121.76326717,36.36976076],[-121.77219496,36.28177647],[-121.77249904,36.28162942],[-121.77273556,36.28152155],[-121.77285852,36.28154475],[-121.77290395,36.28156568],[-121.77290817,36.28156762],[-121.77305506,36.2816353],[-121.77331546,36.28183962],[-121.77383928,36.28225063],[-121.77409089,36.28244637],[-121.77440737,36.28269256],[-121.77444978,36.2827235],[-121.7747283,36.28287583],[-121.77486859,36.28289833],[-121.77512414,36.28281781],[-121.77550352,36.28277451],[-121.77578238,36.28279146],[-121.77606468,36.28286452],[-121.77609801,36.28287297],[-121.77639979,36.28294951],[-121.77664316,36.28295383],[-121.77696642,36.28294088],[-121.777153,36.28300087],[-121.77727361,36.28304105],[-121.77760085,36.2831626],[-121.7777178,36.28320603],[-121.777991,36.28343835],[-121.77817571,36.2835954],[-121.77860517,36.28393208],[-121.77870462,36.28401004],[-121.77924657,36.28435386],[-121.77968374,36.28468782],[-121.78030717,36.28494402],[-121.78096439,36.28518481],[-121.78150379,36.28548654],[-121.78171028,36.28566311],[-121.78198685,36.28589959],[-121.78227337,36.28614458],[-121.78289922,36.28672402],[-121.7832541,36.28713156],[-121.78359774,36.28741849],[-121.78408098,36.28759047],[-121.78454492,36.28762527],[-121.78469157,36.28763627],[-121.78528286,36.28777453],[-121.78587196,36.28791228],[-121.7861517,36.28794323],[-121.78646351,36.28793072],[-121.78687239,36.28780185],[-121.78726481,36.28768769],[-121.78758679,36.2877157],[-121.78781243,36.28776938],[-121.78784334,36.28777694],[-121.78808758,36.28779526],[-121.78834742,36.28778483],[-121.78872681,36.28774148],[-121.78913092,36.28769619],[-121.78931321,36.28767576],[-121.78981987,36.28772572],[-121.79065315,36.2879052],[-121.79074272,36.28793128],[-121.7908591,36.28796516],[-121.79129977,36.28835517],[-121.79185003,36.28895653],[-121.79212486,36.28906715],[-121.79249208,36.28910863],[-121.79290956,36.28911998],[-121.79351845,36.28913769],[-121.79400607,36.28916027],[-121.79445819,36.28917022],[-121.7946141,36.28916395],[-121.79496056,36.28915003],[-121.79535039,36.28899377],[-121.79540089,36.28899562],[-121.79571589,36.2890072],[-121.79609672,36.28920266],[-121.79632552,36.2893201],[-121.79711624,36.28947107],[-121.79759429,36.28962055],[-121.79809838,36.28962839],[-121.79874891,36.2894757],[-121.79910925,36.28940497],[-121.79957267,36.28931603],[-121.79979184,36.2892088],[-121.80012937,36.28914587],[-121.80027258,36.28911916],[-121.80035067,36.28911602],[-121.8005151,36.2891094],[-121.80078193,36.28892996],[-121.80099077,36.28865444],[-121.80114763,36.28838101],[-121.80131762,36.28775558],[-121.80145457,36.28744078],[-121.80166513,36.28719331],[-121.80194152,36.28688695],[-121.80217724,36.28648381],[-121.80232376,36.2860421],[-121.80250235,36.28555691],[-121.80257373,36.28543716],[-121.80269126,36.28524001],[-121.80282647,36.2852482],[-121.80297013,36.2852569],[-121.80328796,36.28534252],[-121.80354176,36.28523389],[-121.80388122,36.28538892],[-121.80391886,36.28539667],[-121.80096241,36.35849789],[-121.80059703,36.35877252],[-121.80021787,36.35924643],[-121.80019237,36.35926172],[-121.79991614,36.35942728],[-121.79962476,36.35977642],[-121.79935856,36.35996991],[-121.79907157,36.36010799],[-121.79891381,36.36010555],[-121.79873273,36.36010275],[-121.79856703,36.36010018],[-121.79848707,36.36003266],[-121.79832868,36.3598989],[-121.79787011,36.35979082],[-121.79771239,36.3598192],[-121.79716527,36.3599176],[-121.79616825,36.36009831],[-121.79586995,36.36033525],[-121.79588366,36.36084081],[-121.79587227,36.36122086],[-121.79569275,36.36141084],[-121.79529472,36.36172209],[-121.79508734,36.36230684],[-121.79480541,36.36281024],[-121.79460596,36.36295885],[-121.7944091,36.36314953],[-121.79433534,36.36336338],[-121.79435172,36.36362983],[-121.79454064,36.3638753],[-121.79460559,36.36408356],[-121.79461939,36.36430795],[-121.79470858,36.36462771],[-121.79502224,36.36520556],[-121.79521289,36.36547906],[-121.79543304,36.36566703],[-121.79555951,36.36602747],[-121.79551526,36.36615578],[-121.795235,36.3661774],[-121.79513463,36.36618515],[-121.7949589,36.36622988],[-121.79474099,36.36628534],[-121.79460908,36.36668429],[-121.79453091,36.36710919],[-121.79445996,36.36752955],[-121.79445446,36.36756215],[-121.79437888,36.36802913],[-121.79436748,36.36840917],[-121.79438818,36.36874575],[-121.79438676,36.36884212],[-121.79437325,36.36975569],[-121.79437134,36.36988518],[-121.79411631,36.37026097],[-121.79381797,36.37049791],[-121.79352135,36.37076289],[-121.79331834,36.37113659],[-121.79324802,36.37140653],[-121.79328002,36.37164424],[-121.79340217,36.37193456],[-121.79345324,36.37219962],[-121.79343408,36.37245345],[-121.79327102,36.37262871],[-121.79289726,36.37277027],[-121.79250789,36.37294058],[-121.79211765,36.37309686],[-121.79173517,36.37337935],[-121.79111325,36.37400888],[-121.79080789,36.3744148],[-121.79065085,36.37468822],[-121.79049208,36.37493361],[-121.79030725,36.37532062],[-121.79008697,36.37541383],[-121.78962821,36.37558691],[-121.7892917,36.37576914],[-121.78878177,36.37595833],[-121.78836199,36.37620014],[-121.78795611,36.37638515],[-121.78733609,36.37648035],[-121.78686784,36.37649916],[-121.78656118,36.37648192],[-121.78615033,36.37645881]]]},"properties":{"OBJECTID":1097718,"COUNTY":"MONTEREY","CITY":"MRY","ZONE_NAME":null,"ZONE_ID":"US-CA-XMY-MRY-F015-B","STATUS":"Evacuation Order","EVENT_TYPE":null,"CRITICAL_INFO":null,"PUBLIC_INFO":null,"EDIT_DATE":1787688014000,"STATEWIDE_LAST_UPDATED":null,"NOTES":"Effective immediately, The Monterey County Sheriff’s Office has issued an Evacuation Order for the following Evacuation Zones: MRY-F015-B and MRY-F023-B","SHAPE__Area":44289116.390625,"SHAPE__Length":33518.584440087463,"GlobalID":"145f5a9c-1573-4b57-b97e-cac80c6105a7","CreationDate":1788335714000,"Creator":"CalOES_Scripts","EditDate":1788335714000,"Editor":"CalOES_Scripts"}},{"type":"Feature","id":1097722,"geometry":{"type":"Polygon","coordinates":[[[-119.00793534,36.05620523],[-119.00792992,36.05620403],[-119.00739118,36.05608524],[-119.0040543,36.0542285],[-119.00091118,36.05479994],[-118.99733194,36.05411908],[-118.99197812,36.0543744],[-118.9918863,36.05436356],[-118.9918553,36.05381633],[-118.99356282,36.05387701],[-118.99718383,36.05369404],[-119.00040868,36.05438014],[-119.00227576,36.05383125],[-119.00354877,36.05380838],[-119.00417114,36.05403708],[-119.006604,36.05486042],[-119.00803219,36.05494595],[-119.00793534,36.05620523]]]},"properties":{"OBJECTID":1097722,"COUNTY":"TULARE","CITY":"PVL","ZONE_NAME":null,"ZONE_ID":"US-CA-XTU-PVL-E042","STATUS":"Evacuation Order","EVENT_TYPE":null,"CRITICAL_INFO":null,"PUBLIC_INFO":null,"EDIT_DATE":1695249188000,"STATEWIDE_LAST_UPDATED":null,"NOTES":"Flooding","SHAPE__Area":129003.35546875,"SHAPE__Length":3995.5603295714513,"GlobalID":"391443c9-8ded-45bd-afdd-e51a7623c159","CreationDate":1788335714000,"Creator":"CalOES_Scripts","EditDate":1788335714000,"Editor":"CalOES_Scripts"}},{"type":"Feature","id":1097726,"geometry":{"type":"Polygon","coordinates":[[[-119.02614973,36.05723153],[-119.0261438,36.0570697],[-119.0261346,36.0567991],[-119.02613127,36.05670178],[-119.02918145,36.05752364],[-119.03301385,36.05880857],[-119.03512778,36.05938244],[-119.03579421,36.0595524],[-119.03791805,36.06009404],[-119.03849882,36.06017579],[-119.03924344,36.0602806],[-119.0392347,36.0608653],[-119.03923501,36.06098307],[-119.03700112,36.06058049],[-119.03487695,36.05996994],[-119.03401154,36.05993178],[-119.03283145,36.05941027],[-119.03130519,36.05893963],[-119.03042405,36.05865978],[-119.02925969,36.05820186],[-119.0272142,36.05741321],[-119.02614973,36.05723153]]]},"properties":{"OBJECTID":1097726,"COUNTY":"TULARE","CITY":"PVL","ZONE_NAME":null,"ZONE_ID":"US-CA-XTU-PVL-E032","STATUS":"Evacuation Order","EVENT_TYPE":null,"CRITICAL_INFO":null,"PUBLIC_INFO":null,"EDIT_DATE":1695249188000,"STATEWIDE_LAST_UPDATED":null,"NOTES":"Flooding","SHAPE__Area":131817.57421875,"SHAPE__Length":3269.8649269497946,"GlobalID":"6dd676fe-9b92-44c6-827a-82f47de49b7c","CreationDate":1788335714000,"Creator":"CalOES_Scripts","EditDate":1788335714000,"Editor":"CalOES_Scripts"}},{"type":"Feature","id":1097728,"geometry":{"type":"Polygon","coordinates":[[[-119.05750879,36.05476396],[-119.05751181,36.05514409],[-119.05601222,36.05521834],[-119.0511452,36.05500832],[-119.04711913,36.05624433],[-119.04610482,36.05715066],[-119.0455668,36.05784284],[-119.04478823,36.05861182],[-119.04471489,36.05954423],[-119.04287378,36.06050594],[-119.04001297,36.06100968],[-119.03923504,36.06099434],[-119.0392347,36.0608653],[-119.03924344,36.0602806],[-119.03949898,36.06031657],[-119.03955298,36.06032417],[-119.03974258,36.06030653],[-119.04028598,36.06025597],[-119.04119542,36.06003102],[-119.04333158,36.05950264],[-119.04372658,36.05927397],[-119.04485518,36.05829044],[-119.04521535,36.05780571],[-119.04635125,36.05627697],[-119.04671805,36.05595677],[-119.05091965,36.05463177],[-119.05148358,36.05458624],[-119.05647318,36.05468077],[-119.0574633,36.05474012],[-119.05751088,36.05474297],[-119.05750879,36.05476396]]]},"properties":{"OBJECTID":1097728,"COUNTY":"TULARE","CITY":"PVL","ZONE_NAME":null,"ZONE_ID":"US-CA-XTU-PVL-E030","STATUS":"Evacuation Order","EVENT_TYPE":null,"CRITICAL_INFO":null,"PUBLIC_INFO":null,"EDIT_DATE":1695249188000,"STATEWIDE_LAST_UPDATED":null,"NOTES":"Flooding","SHAPE__Area":160517.91796875,"SHAPE__Length":4876.2344771372282,"GlobalID":"45a63829-f723-41a4-ace4-7f53443f40df","CreationDate":1788335714000,"Creator":"CalOES_Scripts","EditDate":1788335714000,"Editor":"CalOES_Scripts"}},{"type":"Feature","id":1097731,"geometry":{"type":"Polygon","coordinates":[[[-119.00789512,36.05672891],[-119.007915,36.0564319],[-119.00792992,36.05620403],[-119.00843398,36.05631517],[-119.01192945,36.05647877],[-119.01308538,36.05643397],[-119.01418722,36.05609623],[-119.01494685,36.05586337],[-119.01556698,36.05586397],[-119.01663142,36.05593591],[-119.01661169,36.05655299],[-119.01604402,36.05653689],[-119.01478714,36.05651696],[-119.01332078,36.05677597],[-119.01239067,36.05671738],[-119.01047007,36.05665879],[-119.00932254,36.05664902],[-119.00789512,36.05672891]]]},"properties":{"OBJECTID":1097731,"COUNTY":"TULARE","CITY":"PVL","ZONE_NAME":null,"ZONE_ID":"US-CA-XTU-PVL-E038","STATUS":"Evacuation Order","EVENT_TYPE":null,"CRITICAL_INFO":null,"PUBLIC_INFO":null,"EDIT_DATE":1695249188000,"STATEWIDE_LAST_UPDATED":null,"NOTES":"Flooding","SHAPE__Area":54052.03125,"SHAPE__Length":2118.774775087265,"GlobalID":"d6db4803-de97-4a50-97d8-ead1ef1d9948","CreationDate":1788335714000,"Creator":"CalOES_Scripts","EditDate":1788335714000,"Editor":"CalOES_Scripts"}},{"type":"Feature","id":1097972,"geometry":{"type":"Polygon","coordinates":[[[-122.579979,41.928529],[-122.580241,41.929004],[-122.5803635,41.9292623],[-122.580542,41.929674],[-122.580636,41.929896],[-122.58068922,41.93003162],[-122.57745636,41.93091024],[-122.57260707,41.93174046],[-122.56084489,41.93225159],[-122.55917453,41.93232418],[-122.5587089,41.93207125],[-122.54892489,41.92675643],[-122.54209179,41.91900918],[-122.53594932,41.89778115],[-122.5359171,41.89766979],[-122.54146208,41.89386479],[-122.5403788,41.89060736],[-122.54147777,41.88993854],[-122.54240598,41.88933881],[-122.54333418,41.88849137],[-122.54399969,41.88769607],[-122.54510302,41.88734404],[-122.54582107,41.88714847],[-122.54687172,41.88721371],[-122.54794003,41.88725283],[-122.54939364,41.88730498],[-122.5504707,41.88740276],[-122.55240592,41.88756574],[-122.55399963,41.88726587],[-122.55690464,41.88662103],[-122.5569864,41.8867288],[-122.558051,41.88793],[-122.558986,41.889019],[-122.559914,41.89013],[-122.560264,41.890574],[-122.560617,41.891049],[-122.560978,41.891548],[-122.561468,41.892241],[-122.56193,41.892909],[-122.562025,41.893053],[-122.562578,41.893896],[-122.563438,41.895395],[-122.563876,41.896199],[-122.564125,41.896655],[-122.5642298,41.8968914],[-122.564854,41.898201],[-122.565278,41.899172],[-122.565656,41.900113],[-122.565744,41.900353],[-122.5659057,41.9007987],[-122.56599053,41.90102194],[-122.5660827,41.9012645],[-122.5667247,41.9030381],[-122.5671543,41.9042222],[-122.56737,41.904818],[-122.56750808,41.90519298],[-122.56861983,41.90821205],[-122.56933,41.9101405],[-122.5697091,41.9111786],[-122.5699544,41.9117663],[-122.5702836,41.9126092],[-122.570895,41.914139],[-122.571079,41.914598],[-122.571702,41.915778],[-122.571896,41.916129],[-122.572106,41.9165121],[-122.57221299,41.91669896],[-122.57256,41.917305],[-122.572793,41.917685],[-122.573081,41.918122],[-122.573376,41.918544],[-122.573782,41.919159],[-122.5763313,41.9230351],[-122.578602,41.926418],[-122.579691,41.928036],[-122.579979,41.928529]]]},"properties":{"OBJECTID":1097972,"COUNTY":"SISKIYOU","CITY":"HBK","ZONE_NAME":null,"ZONE_ID":"US-CA-XSK-HBK-3205","STATUS":"Evacuation Warning","EVENT_TYPE":null,"CRITICAL_INFO":null,"PUBLIC_INFO":null,"EDIT_DATE":1790727304000,"STATEWIDE_LAST_UPDATED":null,"NOTES":"Siskiyou County Sheriff's Office: EVACUATION WARNING issued for Zones HBK-3205 in the area of I-5 EXIT 789 HENLEY HORNBROOK due to COTTON FIRE. Anyone in this area should prepare to leave should conditions warrant. ","SHAPE__Area":20325567.37109375,"SHAPE__Length":18961.823585533857,"GlobalID":"f3329bad-ffee-4ecf-9a19-8798c24bdced","CreationDate":1790727331000,"Creator":"CalOES_Scripts","EditDate":1790727331000,"Editor":"CalOES_Scripts"}}]}