{"type":"FeatureCollection","features":[{"type":"Feature","id":1097678,"geometry":{"type":"Polygon","coordinates":[[[-118.9918863,36.05436356],[-118.99063967,36.05421634],[-118.98971854,36.05384855],[-118.98881621,36.05365402],[-118.98748903,36.05304306],[-118.98704539,36.05264183],[-118.98395491,36.05241385],[-118.98276684,36.05264791],[-118.98181188,36.05225883],[-118.9810073,36.05232874],[-118.97980419,36.05234698],[-118.97879659,36.05217068],[-118.97823264,36.05196399],[-118.97663852,36.05215245],[-118.97508952,36.05263879],[-118.97451053,36.05279077],[-118.97415711,36.05291843],[-118.97339013,36.05274821],[-118.97272504,36.05271211],[-118.97273788,36.05132672],[-118.9728059,36.0513302],[-118.97303997,36.05132919],[-118.98169016,36.0512862],[-118.98223393,36.05128267],[-118.98629251,36.05218455],[-118.98770696,36.05259624],[-118.98881024,36.05303079],[-118.99098851,36.05378552],[-118.9918553,36.05381633],[-118.9918863,36.05436356]]]},"properties":{"OBJECTID":1097678,"COUNTY":"TULARE","CITY":"PVL","ZONE_NAME":null,"ZONE_ID":"US-CA-XTU-PVL-E044","STATUS":"Evacuation Order","EVENT_TYPE":null,"CRITICAL_INFO":null,"PUBLIC_INFO":null,"EDIT_DATE":1695249188000,"STATEWIDE_LAST_UPDATED":null,"NOTES":"Flooding","SHAPE__Area":247872.7890625,"SHAPE__Length":4705.1899556937969,"GlobalID":"67c10798-70df-43b5-921f-3603c81609ff","CreationDate":1788335714107,"Creator":"CalOES_Scripts","EditDate":1788335714107,"Editor":"CalOES_Scripts"}},{"type":"Feature","id":1097685,"geometry":{"type":"Polygon","coordinates":[[[-119.01663142,36.05593591],[-119.01691895,36.05595534],[-119.01779816,36.05601476],[-119.01969569,36.05614299],[-119.02551765,36.05653644],[-119.02613127,36.05670178],[-119.0261346,36.0567991],[-119.0261438,36.0570697],[-119.02615105,36.05726749],[-119.01661235,36.05653253],[-119.01663142,36.05593591]]]},"properties":{"OBJECTID":1097685,"COUNTY":"TULARE","CITY":"PVL","ZONE_NAME":null,"ZONE_ID":"US-CA-XTU-PVL-E036","STATUS":"Evacuation Order","EVENT_TYPE":null,"CRITICAL_INFO":null,"PUBLIC_INFO":null,"EDIT_DATE":1695249188000,"STATEWIDE_LAST_UPDATED":null,"NOTES":"Flooding","SHAPE__Area":93231.91796875,"SHAPE__Length":2291.4262048653245,"GlobalID":"85bd69e6-a089-4f50-a6a5-735da1e05308","CreationDate":1788335714107,"Creator":"CalOES_Scripts","EditDate":1788335714107,"Editor":"CalOES_Scripts"}},{"type":"Feature","id":1097693,"geometry":{"type":"Polygon","coordinates":[[[-119.01663989,36.05561998],[-119.0166333,36.0558772],[-119.01663142,36.05593591],[-119.01556698,36.05586397],[-119.01494685,36.05586337],[-119.01418722,36.05609623],[-119.01308538,36.05643397],[-119.01192945,36.05647877],[-119.00843398,36.05631517],[-119.00793534,36.05620523],[-119.00803219,36.05494595],[-119.00889542,36.05499765],[-119.01047961,36.05559228],[-119.01243157,36.05524922],[-119.01378944,36.05536357],[-119.01458154,36.05547792],[-119.01663989,36.05561998]]]},"properties":{"OBJECTID":1097693,"COUNTY":"TULARE","CITY":"PVL","ZONE_NAME":null,"ZONE_ID":"US-CA-XTU-PVL-E039","STATUS":"Evacuation Order","EVENT_TYPE":null,"CRITICAL_INFO":null,"PUBLIC_INFO":null,"EDIT_DATE":1695249188000,"STATEWIDE_LAST_UPDATED":null,"NOTES":"Flooding","SHAPE__Area":117016.9921875,"SHAPE__Length":2187.5932811268758,"GlobalID":"f5e1b2e3-04f1-4063-91db-1b28d6492ad8","CreationDate":1788335714107,"Creator":"CalOES_Scripts","EditDate":1788335714107,"Editor":"CalOES_Scripts"}},{"type":"Feature","id":1097706,"geometry":{"type":"Polygon","coordinates":[[[-119.03924344,36.0602806],[-119.03849882,36.06017579],[-119.03791805,36.06009404],[-119.03579421,36.0595524],[-119.03512778,36.05938244],[-119.03301385,36.05880857],[-119.02918145,36.05752364],[-119.02613127,36.05670178],[-119.02551765,36.05653644],[-119.01969569,36.05614299],[-119.01779816,36.05601476],[-119.01691895,36.05595534],[-119.01663142,36.05593591],[-119.0166333,36.0558772],[-119.01664,36.0556156],[-119.0166448,36.0554274],[-119.01664842,36.05532994],[-119.01836866,36.05537553],[-119.02227243,36.05566244],[-119.02415334,36.05586328],[-119.02635364,36.05620757],[-119.02798613,36.05649447],[-119.02968959,36.05686745],[-119.03199636,36.05792898],[-119.03341592,36.05835933],[-119.03508389,36.05861754],[-119.0360066,36.05893312],[-119.03778104,36.05962167],[-119.03925238,36.05968215],[-119.03924344,36.0602806]]]},"properties":{"OBJECTID":1097706,"COUNTY":"TULARE","CITY":"PVL","ZONE_NAME":null,"ZONE_ID":"US-CA-XTU-PVL-E034","STATUS":"Evacuation Order","EVENT_TYPE":null,"CRITICAL_INFO":null,"PUBLIC_INFO":null,"EDIT_DATE":1695249188000,"STATEWIDE_LAST_UPDATED":null,"NOTES":"Flooding","SHAPE__Area":217621.41796875,"SHAPE__Length":5393.0078694906724,"GlobalID":"7f617f43-831e-400c-b392-fe1e66343afe","CreationDate":1788335714107,"Creator":"CalOES_Scripts","EditDate":1788335714107,"Editor":"CalOES_Scripts"}},{"type":"Feature","id":1097722,"geometry":{"type":"Polygon","coordinates":[[[-119.00793534,36.05620523],[-119.00792992,36.05620403],[-119.00739118,36.05608524],[-119.0040543,36.0542285],[-119.00091118,36.05479994],[-118.99733194,36.05411908],[-118.99197812,36.0543744],[-118.9918863,36.05436356],[-118.9918553,36.05381633],[-118.99356282,36.05387701],[-118.99718383,36.05369404],[-119.00040868,36.05438014],[-119.00227576,36.05383125],[-119.00354877,36.05380838],[-119.00417114,36.05403708],[-119.006604,36.05486042],[-119.00803219,36.05494595],[-119.00793534,36.05620523]]]},"properties":{"OBJECTID":1097722,"COUNTY":"TULARE","CITY":"PVL","ZONE_NAME":null,"ZONE_ID":"US-CA-XTU-PVL-E042","STATUS":"Evacuation Order","EVENT_TYPE":null,"CRITICAL_INFO":null,"PUBLIC_INFO":null,"EDIT_DATE":1695249188000,"STATEWIDE_LAST_UPDATED":null,"NOTES":"Flooding","SHAPE__Area":129003.35546875,"SHAPE__Length":3995.5603295714513,"GlobalID":"391443c9-8ded-45bd-afdd-e51a7623c159","CreationDate":1788335714107,"Creator":"CalOES_Scripts","EditDate":1788335714107,"Editor":"CalOES_Scripts"}},{"type":"Feature","id":1097726,"geometry":{"type":"Polygon","coordinates":[[[-119.02614973,36.05723153],[-119.0261438,36.0570697],[-119.0261346,36.0567991],[-119.02613127,36.05670178],[-119.02918145,36.05752364],[-119.03301385,36.05880857],[-119.03512778,36.05938244],[-119.03579421,36.0595524],[-119.03791805,36.06009404],[-119.03849882,36.06017579],[-119.03924344,36.0602806],[-119.0392347,36.0608653],[-119.03923501,36.06098307],[-119.03700112,36.06058049],[-119.03487695,36.05996994],[-119.03401154,36.05993178],[-119.03283145,36.05941027],[-119.03130519,36.05893963],[-119.03042405,36.05865978],[-119.02925969,36.05820186],[-119.0272142,36.05741321],[-119.02614973,36.05723153]]]},"properties":{"OBJECTID":1097726,"COUNTY":"TULARE","CITY":"PVL","ZONE_NAME":null,"ZONE_ID":"US-CA-XTU-PVL-E032","STATUS":"Evacuation Order","EVENT_TYPE":null,"CRITICAL_INFO":null,"PUBLIC_INFO":null,"EDIT_DATE":1695249188000,"STATEWIDE_LAST_UPDATED":null,"NOTES":"Flooding","SHAPE__Area":131817.57421875,"SHAPE__Length":3269.8649269497946,"GlobalID":"6dd676fe-9b92-44c6-827a-82f47de49b7c","CreationDate":1788335714107,"Creator":"CalOES_Scripts","EditDate":1788335714107,"Editor":"CalOES_Scripts"}},{"type":"Feature","id":1097728,"geometry":{"type":"Polygon","coordinates":[[[-119.05750879,36.05476396],[-119.05751181,36.05514409],[-119.05601222,36.05521834],[-119.0511452,36.05500832],[-119.04711913,36.05624433],[-119.04610482,36.05715066],[-119.0455668,36.05784284],[-119.04478823,36.05861182],[-119.04471489,36.05954423],[-119.04287378,36.06050594],[-119.04001297,36.06100968],[-119.03923504,36.06099434],[-119.0392347,36.0608653],[-119.03924344,36.0602806],[-119.03949898,36.06031657],[-119.03955298,36.06032417],[-119.03974258,36.06030653],[-119.04028598,36.06025597],[-119.04119542,36.06003102],[-119.04333158,36.05950264],[-119.04372658,36.05927397],[-119.04485518,36.05829044],[-119.04521535,36.05780571],[-119.04635125,36.05627697],[-119.04671805,36.05595677],[-119.05091965,36.05463177],[-119.05148358,36.05458624],[-119.05647318,36.05468077],[-119.0574633,36.05474012],[-119.05751088,36.05474297],[-119.05750879,36.05476396]]]},"properties":{"OBJECTID":1097728,"COUNTY":"TULARE","CITY":"PVL","ZONE_NAME":null,"ZONE_ID":"US-CA-XTU-PVL-E030","STATUS":"Evacuation Order","EVENT_TYPE":null,"CRITICAL_INFO":null,"PUBLIC_INFO":null,"EDIT_DATE":1695249188000,"STATEWIDE_LAST_UPDATED":null,"NOTES":"Flooding","SHAPE__Area":160517.91796875,"SHAPE__Length":4876.2344771372282,"GlobalID":"45a63829-f723-41a4-ace4-7f53443f40df","CreationDate":1788335714107,"Creator":"CalOES_Scripts","EditDate":1788335714107,"Editor":"CalOES_Scripts"}},{"type":"Feature","id":1097731,"geometry":{"type":"Polygon","coordinates":[[[-119.00789512,36.05672891],[-119.007915,36.0564319],[-119.00792992,36.05620403],[-119.00843398,36.05631517],[-119.01192945,36.05647877],[-119.01308538,36.05643397],[-119.01418722,36.05609623],[-119.01494685,36.05586337],[-119.01556698,36.05586397],[-119.01663142,36.05593591],[-119.01661169,36.05655299],[-119.01604402,36.05653689],[-119.01478714,36.05651696],[-119.01332078,36.05677597],[-119.01239067,36.05671738],[-119.01047007,36.05665879],[-119.00932254,36.05664902],[-119.00789512,36.05672891]]]},"properties":{"OBJECTID":1097731,"COUNTY":"TULARE","CITY":"PVL","ZONE_NAME":null,"ZONE_ID":"US-CA-XTU-PVL-E038","STATUS":"Evacuation Order","EVENT_TYPE":null,"CRITICAL_INFO":null,"PUBLIC_INFO":null,"EDIT_DATE":1695249188000,"STATEWIDE_LAST_UPDATED":null,"NOTES":"Flooding","SHAPE__Area":54052.03125,"SHAPE__Length":2118.774775087265,"GlobalID":"d6db4803-de97-4a50-97d8-ead1ef1d9948","CreationDate":1788335714107,"Creator":"CalOES_Scripts","EditDate":1788335714107,"Editor":"CalOES_Scripts"}},{"type":"Feature","id":1098059,"geometry":{"type":"Polygon","coordinates":[[[-118.80899292,34.75740811],[-118.79605029,34.75826233],[-118.7961074,34.7581898],[-118.79610212,34.75814958],[-118.79607391,34.75793462],[-118.7960698,34.7579033],[-118.7960296,34.7574923],[-118.7960095,34.7570582],[-118.7958901,34.7519919],[-118.7958512,34.7498685],[-118.7958392,34.7491181],[-118.79585596,34.74863578],[-118.79543509,34.748773],[-118.7954351,34.7486283],[-118.7954404,34.7483594],[-118.7954941,34.7474382],[-118.79552837,34.74708816],[-118.79555905,34.7467749],[-118.79556625,34.74670132],[-118.7955692,34.7466712],[-118.7956094,34.74635385],[-118.7956496,34.7460365],[-118.7957516,34.7453753],[-118.7958029,34.74509121],[-118.79584762,34.74484364],[-118.7958608,34.74477062],[-118.79724064,34.73712966],[-118.7986269,34.7294524],[-118.79868055,34.72912615],[-118.7987342,34.7287999],[-118.79882,34.728165],[-118.79886025,34.7278035],[-118.7989005,34.727442],[-118.79890804,34.72733444],[-118.798913,34.72726373],[-118.79891817,34.72719002],[-118.79892042,34.72715788],[-118.79892559,34.72708418],[-118.7989337,34.72696851],[-118.7989444,34.726816],[-118.79896,34.7265007],[-118.7989756,34.7261854],[-118.79898095,34.7258878],[-118.7989863,34.7255902],[-118.7989836,34.7252882],[-118.7989809,34.7249862],[-118.79897469,34.72483713],[-118.809769,34.72429],[-118.80899292,34.75740811]]]},"properties":{"OBJECTID":1098059,"COUNTY":"LOS ANGELES","CITY":"GOR","ZONE_NAME":null,"ZONE_ID":"US-CA-XLA-GOR-HUNGRYVALLEY-D","STATUS":"Evacuation Warning","EVENT_TYPE":null,"CRITICAL_INFO":null,"PUBLIC_INFO":null,"EDIT_DATE":1791515034000,"STATEWIDE_LAST_UPDATED":null,"NOTES":"Local authorities are responding to a Wildfire. An EVACUATION WARNING has been issued. PREPARE TO LEAVE.  Consider leaving now if you need more time to evacuate. Call 911 for emergency assistance. Visit AlertLA.org for more information.\n\n","SHAPE__Area":6244041.8515625,"SHAPE__Length":11763.46766609863,"GlobalID":"efea333b-81cc-4995-bcda-e8d75fa4d8c2","CreationDate":1791515135145,"Creator":"CalOES_Scripts","EditDate":1791515135145,"Editor":"CalOES_Scripts"}},{"type":"Feature","id":1098063,"geometry":{"type":"Polygon","coordinates":[[[-118.79889254,34.72751347],[-118.79886025,34.7278035],[-118.79882,34.728165],[-118.7987342,34.7287999],[-118.79872756,34.72884028],[-118.79868055,34.72912615],[-118.7986269,34.7294524],[-118.79724064,34.73712966],[-118.7958608,34.74477062],[-118.79584762,34.74484364],[-118.7958029,34.74509121],[-118.7957516,34.7453753],[-118.7956496,34.7460365],[-118.7956094,34.74635385],[-118.7955692,34.7466712],[-118.79556625,34.74670132],[-118.79555905,34.7467749],[-118.79552837,34.74708816],[-118.79551666,34.74720782],[-118.787449,34.747075],[-118.787404,34.727829],[-118.79889254,34.72751347]]]},"properties":{"OBJECTID":1098063,"COUNTY":"LOS ANGELES","CITY":"GOR","ZONE_NAME":null,"ZONE_ID":"US-CA-XLA-GOR-E004-D","STATUS":"Evacuation Order","EVENT_TYPE":null,"CRITICAL_INFO":null,"PUBLIC_INFO":null,"EDIT_DATE":1791515119000,"STATEWIDE_LAST_UPDATED":null,"NOTES":"Local authorities are responding to a fast-moving Wildfire. An EVACUATION ORDER has been issued. LEAVE NOW. Your safety is in danger if you stay. Call 911 if you need emergency assistance. Visit Alertla.org for more information.\n","SHAPE__Area":2866988.24609375,"SHAPE__Length":7479.5869579596911,"GlobalID":"6dfa9c4b-53df-4ce0-b956-d4bb3966689e","CreationDate":1791515432001,"Creator":"CalOES_Scripts","EditDate":1791515432001,"Editor":"CalOES_Scripts"}},{"type":"Feature","id":1098065,"geometry":{"type":"Polygon","coordinates":[[[-118.79898237,34.72515097],[-118.7989836,34.7252882],[-118.7989863,34.7255902],[-118.79898095,34.7258878],[-118.7989756,34.7261854],[-118.79896,34.7265007],[-118.7989444,34.726816],[-118.7989337,34.72696851],[-118.79892559,34.72708418],[-118.79892042,34.72715788],[-118.79891817,34.72719002],[-118.798913,34.72726373],[-118.79890804,34.72733444],[-118.7989005,34.727442],[-118.79889254,34.72751347],[-118.787404,34.727829],[-118.787449,34.747075],[-118.79551666,34.74720782],[-118.7954941,34.7474382],[-118.7954404,34.7483594],[-118.7954351,34.7486283],[-118.79543509,34.748773],[-118.79585596,34.74863578],[-118.7958392,34.7491181],[-118.7958512,34.7498685],[-118.7958901,34.7519919],[-118.7960095,34.7570582],[-118.7960296,34.7574923],[-118.7960698,34.7579033],[-118.79607391,34.75793462],[-118.79610212,34.75814958],[-118.7961074,34.7581898],[-118.7960359,34.7582806],[-118.79585239,34.75856462],[-118.79576141,34.75868109],[-118.79573318,34.75871723],[-118.778936,34.758691],[-118.779566,34.725856],[-118.79898237,34.72515097]]]},"properties":{"OBJECTID":1098065,"COUNTY":"LOS ANGELES","CITY":"GOR","ZONE_NAME":null,"ZONE_ID":"US-CA-XLA-GOR-E004-C","STATUS":"Evacuation Warning","EVENT_TYPE":null,"CRITICAL_INFO":null,"PUBLIC_INFO":null,"EDIT_DATE":1791515568000,"STATEWIDE_LAST_UPDATED":null,"NOTES":"Local authorities are responding to a fast-moving Wildfire. An EVACUATION ORDER has been issued. LEAVE NOW. Your safety is in danger if you stay. Call 911 if you need emergency assistance. Visit Alertla.org for more information.","SHAPE__Area":5940497.1640625,"SHAPE__Length":15227.97606256059,"GlobalID":"d64c5e41-7164-4a65-8fa4-7795200ff4a3","CreationDate":1791515732159,"Creator":"CalOES_Scripts","EditDate":1791515732159,"Editor":"CalOES_Scripts"}},{"type":"Feature","id":1098067,"geometry":{"type":"Polygon","coordinates":[[[-118.42303497,35.7022312],[-118.423195,35.706613],[-118.419251,35.711977],[-118.416764,35.720726],[-118.41702599,35.7314383],[-118.41355195,35.73154962],[-118.41207241,35.73204095],[-118.40978585,35.73400624],[-118.40635601,35.7336241],[-118.4041367,35.73204095],[-118.40003435,35.73116747],[-118.3982858,35.73133125],[-118.39532672,35.73007561],[-118.3906191,35.72827401],[-118.38772728,35.72794644],[-118.38752552,35.72472527],[-118.38470095,35.72297815],[-118.38194363,35.71970218],[-118.376967,35.71511561],[-118.37781079,35.71173406],[-118.37840575,35.7098822],[-118.37672002,35.70717142],[-118.37629033,35.70424583],[-118.38001374,35.6977494],[-118.38232749,35.69353494],[-118.39078918,35.69498453],[-118.39313598,35.69479662],[-118.39845759,35.6897498],[-118.40077134,35.68784373],[-118.40523356,35.69264907],[-118.40599379,35.69364232],[-118.40863807,35.69289068],[-118.4122409,35.69356179],[-118.4150835,35.69519928],[-118.4170006,35.69530665],[-118.41789305,35.69565562],[-118.41990931,35.69740044],[-118.4207687,35.69836679],[-118.42152893,35.69970891],[-118.42189252,35.70115838],[-118.42195863,35.70196363],[-118.42303497,35.7022312]]]},"properties":{"OBJECTID":1098067,"COUNTY":"KERN","CITY":"KRN","ZONE_NAME":null,"ZONE_ID":"US-CA-XKE-KRN-761","STATUS":"Evacuation Order","EVENT_TYPE":null,"CRITICAL_INFO":null,"PUBLIC_INFO":null,"EDIT_DATE":1791582854000,"STATEWIDE_LAST_UPDATED":null,"NOTES":"KRN-761 is under an Evacuation Order due to the Cyrus Fire. There is an immediate threat to life. This is a lawful order to leave now. The area is lawfully closed to public access.","SHAPE__Area":22322631.203125,"SHAPE__Length":19198.053162351425,"GlobalID":"35f10fa2-7711-456e-99e4-b6c8fe9ca5bd","CreationDate":1791582931253,"Creator":"CalOES_Scripts","EditDate":1791582931253,"Editor":"CalOES_Scripts"}},{"type":"Feature","id":1098068,"geometry":{"type":"Polygon","coordinates":[[[-118.33488081,35.739312],[-118.33478609,35.73906569],[-118.33481467,35.73879112],[-118.33485038,35.73860872],[-118.33471235,35.73839915],[-118.33448268,35.73825749],[-118.33442387,35.73812495],[-118.3343167,35.73788347],[-118.33435302,35.73747646],[-118.33439508,35.73735367],[-118.33447382,35.73712379],[-118.33444114,35.73673319],[-118.33443696,35.73668331],[-118.33451551,35.73641069],[-118.3346136,35.73632118],[-118.33508435,35.73589164],[-118.33548462,35.73560384],[-118.33583228,35.73530807],[-118.33609943,35.73523677],[-118.33654151,35.73517226],[-118.33671899,35.73514655],[-118.33737508,35.73505148],[-118.33835681,35.73475266],[-118.33869,35.73462265],[-118.33903687,35.73425833],[-118.33908447,35.73408661],[-118.33901605,35.73397164],[-118.33876438,35.73377808],[-118.33856327,35.73357627],[-118.33842238,35.73339221],[-118.33835384,35.73330267],[-118.33835205,35.73322568],[-118.33835027,35.73314937],[-118.33836039,35.73297619],[-118.33844844,35.73254056],[-118.33841156,35.7323145],[-118.33841066,35.73211413],[-118.33840977,35.73191622],[-118.33844376,35.73179474],[-118.3384889,35.7316334],[-118.33853769,35.7314413],[-118.33861444,35.73098481],[-118.33856565,35.73031924],[-118.33857398,35.7299622],[-118.33854959,35.72973662],[-118.33852304,35.72959325],[-118.33849247,35.72942809],[-118.33850747,35.7293173],[-118.33853649,35.72910307],[-118.33860669,35.72854422],[-118.33868522,35.72827159],[-118.33864522,35.72819331],[-118.33858408,35.72807366],[-118.33844665,35.72785391],[-118.33844129,35.72773118],[-118.33849127,35.7275187],[-118.33872388,35.72718057],[-118.33893201,35.7270005],[-118.33860774,35.72688027],[-118.33832971,35.72679607],[-118.33790687,35.72654894],[-118.33779075,35.72641157],[-118.33771439,35.72632123],[-118.3377062,35.72617586],[-118.33769544,35.7259849],[-118.33767406,35.72569043],[-118.3375543,35.72531873],[-118.33718584,35.72480104],[-118.3370117,35.72447966],[-118.33655344,35.72395848],[-118.33624609,35.72349559],[-118.33603408,35.72316225],[-118.33585322,35.72273574],[-118.33577685,35.72250206],[-118.33576769,35.72221855],[-118.33574142,35.72200778],[-118.33573654,35.72165103],[-118.33572616,35.72138845],[-118.33571089,35.72120957],[-118.33555692,35.72098336],[-118.33548265,35.72075612],[-118.33545102,35.72053781],[-118.33542618,35.72035954],[-118.3352936,35.71998734],[-118.33519616,35.71975182],[-118.3351837,35.71962157],[-118.33517813,35.71954239],[-118.33516821,35.71929948],[-118.33516225,35.71915375],[-118.33517708,35.71905476],[-118.33520442,35.71887223],[-118.33528446,35.71860267],[-118.33535099,35.7185022],[-118.33545371,35.71834707],[-118.33553498,35.71805658],[-118.3355582,35.71787921],[-118.33550505,35.71768837],[-118.33520751,35.71749853],[-118.33505293,35.71728278],[-118.33481772,35.71690659],[-118.33463626,35.71671077],[-118.33459959,35.71667532],[-118.33447803,35.71655781],[-118.33430452,35.71644619],[-118.33427458,35.71629821],[-118.33428315,35.71593149],[-118.33436381,35.71543124],[-118.33438415,35.71538627],[-118.3344524,35.71523543],[-118.33451962,35.71496537],[-118.33461005,35.71451794],[-118.33455018,35.71422197],[-118.33423372,35.7136958],[-118.3341889,35.71354309],[-118.3341372,35.71336695],[-118.33416364,35.71327094],[-118.33425123,35.71295324],[-118.33455266,35.7126385],[-118.33475245,35.71230019],[-118.33463332,35.71191802],[-118.33441522,35.71168931],[-118.33411099,35.71139434],[-118.3341116,35.71116365],[-118.33399981,35.71087615],[-118.33380561,35.71067121],[-118.33372124,35.71058217],[-118.33370915,35.71049869],[-118.33369375,35.71039234],[-118.3336571,35.71013922],[-118.33352454,35.70998725],[-118.3333095,35.70992646],[-118.33312542,35.70991302],[-118.33300221,35.70990403],[-118.33266865,35.70989106],[-118.33241757,35.70978692],[-118.33218446,35.70945996],[-118.33215611,35.70942019],[-118.33194353,35.70909732],[-118.3317528,35.70889146],[-118.33170162,35.70883622],[-118.3316326,35.7086972],[-118.33164623,35.70846388],[-118.33166134,35.70820542],[-118.33159232,35.70784618],[-118.33148543,35.70747497],[-118.33120384,35.70701308],[-118.33074142,35.70656512],[-118.33031016,35.706024],[-118.3302039,35.70564233],[-118.33016482,35.70543107],[-118.33005855,35.70504939],[-118.32987042,35.70474844],[-118.32974704,35.70443951],[-118.32959618,35.70416098],[-118.32931091,35.70398209],[-118.32897529,35.70376054],[-118.32893952,35.70373693],[-118.32891973,35.70369886],[-118.32878927,35.70344793],[-118.32873615,35.7032571],[-118.32844234,35.70300447],[-118.32830796,35.70288388],[-118.32795857,35.70270249],[-118.32758107,35.70256196],[-118.32716677,35.7024505],[-118.32712538,35.70243936],[-118.32679751,35.70225461],[-118.32652313,35.70196498],[-118.32623239,35.70166003],[-118.32616005,35.70148933],[-118.32609682,35.70134014],[-118.32627827,35.70109551],[-118.32646581,35.70074613],[-118.32649029,35.70054794],[-118.32656133,35.70026016],[-118.32660823,35.70007012],[-118.32664735,35.69984092],[-118.32660098,35.69931476],[-118.3265786,35.699237],[-118.32655824,35.69916628],[-118.32648558,35.69886981],[-118.32647923,35.69875682],[-118.32646668,35.69853349],[-118.32635432,35.69825645],[-118.32608864,35.69796296],[-118.32533434,35.69745119],[-118.32692736,35.69577007],[-118.32886824,35.69351827],[-118.33510679,35.68980265],[-118.33815675,35.68619946],[-118.3407908,35.68304653],[-118.34855433,35.67899259],[-118.35077248,35.67561415],[-118.355894,35.674297],[-118.356129,35.674765],[-118.356482,35.675836],[-118.356685,35.676489],[-118.35683076,35.67674912],[-118.35688,35.676837],[-118.357075,35.677058],[-118.357387,35.677275],[-118.35761,35.677377],[-118.35827403,35.67755654],[-118.35886127,35.67767175],[-118.35913337,35.67772514],[-118.3608988,35.67807151],[-118.364826,35.678842],[-118.370034,35.679881],[-118.37023509,35.67992304],[-118.3789279,35.68174023],[-118.379807,35.681924],[-118.380174,35.682006],[-118.380989,35.682273],[-118.381397,35.682478],[-118.382276,35.682983],[-118.382801,35.683197],[-118.384129,35.683623],[-118.384326,35.683663],[-118.384786,35.68368],[-118.385198,35.683618],[-118.385441,35.683528],[-118.38567,35.6834],[-118.3871967,35.6824593],[-118.3877358,35.6821827],[-118.3879504,35.682126],[-118.3881944,35.682089],[-118.3883768,35.682089],[-118.3885646,35.6821195],[-118.388713,35.682165],[-118.3891279,35.6822763],[-118.3894095,35.6823482],[-118.3896536,35.68237],[-118.3899432,35.6823787],[-118.3902343,35.6823502],[-118.39046,35.682293],[-118.390679,35.682185],[-118.390912,35.682114],[-118.391613,35.681981],[-118.392139,35.681794],[-118.392448,35.681576],[-118.392905,35.681077],[-118.393064,35.68097],[-118.393859,35.680632],[-118.394406,35.680361],[-118.3946307,35.68016266],[-118.394747,35.68006],[-118.394889,35.679852],[-118.395334,35.67907],[-118.39556204,35.67871036],[-118.395613,35.67863],[-118.395823,35.678363],[-118.397902,35.676477],[-118.399441,35.675133],[-118.399823,35.674932],[-118.400327,35.674811],[-118.400705,35.674807],[-118.400917,35.674845],[-118.401232,35.674956],[-118.401478,35.675116],[-118.401669,35.675325],[-118.401877,35.675732],[-118.402076,35.675972],[-118.402333,35.676137],[-118.402789,35.676265],[-118.404502,35.676462],[-118.40496,35.676547],[-118.405335,35.676683],[-118.405672,35.676916],[-118.40589,35.677169],[-118.406206,35.677847],[-118.406271,35.678108],[-118.406263,35.678447],[-118.406065,35.679042],[-118.406041,35.679432],[-118.406126,35.679713],[-118.40623,35.67991],[-118.406456,35.680186],[-118.406719,35.680373],[-118.407025,35.680521],[-118.407356,35.680611],[-118.407864,35.680654],[-118.411085,35.680567],[-118.411446,35.68051],[-118.411833,35.680406],[-118.41231,35.68017],[-118.412645,35.679937],[-118.413036,35.679531],[-118.41364,35.678652],[-118.414076,35.677915],[-118.414484,35.677308],[-118.414577,35.677198],[-118.414798,35.67703],[-118.415048,35.676919],[-118.415418,35.676875],[-118.415751,35.676942],[-118.416059,35.677091],[-118.416477,35.677345],[-118.417192,35.677816],[-118.417741,35.678288],[-118.418934,35.679589],[-118.419246,35.680068],[-118.4194306,35.68057],[-118.4195725,35.6809076],[-118.4196894,35.6811259],[-118.4198039,35.6812856],[-118.4199018,35.6813974],[-118.4200519,35.6815396],[-118.4209783,35.6823165],[-118.4211437,35.6824289],[-118.4213162,35.6825366],[-118.421525,35.6826386],[-118.4217561,35.6827357],[-118.4219708,35.6828091],[-118.4222453,35.6828834],[-118.4231427,35.6831188],[-118.4233937,35.6832017],[-118.4235896,35.6832884],[-118.4237503,35.6833932],[-118.423836,35.6834618],[-118.4239169,35.6835523],[-118.4239826,35.6836457],[-118.4240413,35.6837686],[-118.4240671,35.6838677],[-118.4241023,35.6840964],[-118.4241375,35.6842184],[-118.424209,35.6843584],[-118.4243404,35.6845176],[-118.4245058,35.684651],[-118.424699,35.684739],[-118.424972,35.68482],[-118.4256193,35.6849435],[-118.4260192,35.6850702],[-118.4262398,35.6851861],[-118.426414,35.6853073],[-118.4267557,35.6855849],[-118.4270029,35.6858329],[-118.42705772,35.68590569],[-118.42606496,35.68791932],[-118.42600812,35.69199697],[-118.42680074,35.69440631],[-118.423032,35.70215],[-118.42303497,35.7022312],[-118.42195863,35.70196363],[-118.42189252,35.70115838],[-118.42152893,35.69970891],[-118.4207687,35.69836679],[-118.41990931,35.69740044],[-118.41789305,35.69565562],[-118.4170006,35.69530665],[-118.4150835,35.69519928],[-118.4122409,35.69356179],[-118.40863807,35.69289068],[-118.40599379,35.69364232],[-118.40523356,35.69264907],[-118.40077134,35.68784373],[-118.39845759,35.6897498],[-118.39313598,35.69479662],[-118.39078918,35.69498453],[-118.38232749,35.69353494],[-118.38001374,35.6977494],[-118.37629033,35.70424583],[-118.37672002,35.70717142],[-118.37840575,35.7098822],[-118.37781079,35.71173406],[-118.376967,35.71511561],[-118.38194363,35.71970218],[-118.38470095,35.72297815],[-118.38752552,35.72472527],[-118.38771062,35.72768054],[-118.382147,35.729487],[-118.378656,35.730243],[-118.375397,35.731566],[-118.372139,35.731566],[-118.367717,35.731755],[-118.361898,35.732699],[-118.35957,35.7361],[-118.355148,35.737045],[-118.351191,35.736667],[-118.348398,35.738556],[-118.344442,35.739123],[-118.341649,35.739312],[-118.33488081,35.739312]]]},"properties":{"OBJECTID":1098068,"COUNTY":"KERN","CITY":"KRN","ZONE_NAME":null,"ZONE_ID":"US-CA-XKE-KRN-760-B","STATUS":"Evacuation Warning","EVENT_TYPE":null,"CRITICAL_INFO":null,"PUBLIC_INFO":null,"EDIT_DATE":1791585248000,"STATEWIDE_LAST_UPDATED":null,"NOTES":"KRN-760-B is under an Evacuation Warning due to the Cyrus Fire. There is a potential threat to life and/or property. Those who require additional time to evacuate and those with pets and livestock should leave now. ","SHAPE__Area":49333552.8515625,"SHAPE__Length":42014.0151318263,"GlobalID":"8446a0fe-55ba-45f0-bf46-80cb0bedcb6b","CreationDate":1791585332062,"Creator":"CalOES_Scripts","EditDate":1791585332062,"Editor":"CalOES_Scripts"}},{"type":"Feature","id":1098069,"geometry":{"type":"Polygon","coordinates":[[[-118.32899314,35.6730564],[-118.329418,35.673158],[-118.329988,35.673263],[-118.330491,35.673285],[-118.330896,35.673232],[-118.332601,35.672684],[-118.33281534,35.67260639],[-118.333134,35.672491],[-118.334016,35.672037],[-118.33432,35.671733],[-118.334642,35.67137],[-118.33495747,35.67114759],[-118.335042,35.671088],[-118.335487,35.670935],[-118.33584976,35.67088282],[-118.335925,35.670872],[-118.336347,35.67091],[-118.337509,35.671261],[-118.33909623,35.67206443],[-118.340907,35.672981],[-118.341342,35.673111],[-118.341649,35.673169],[-118.342325,35.67322],[-118.342883,35.67318],[-118.344787,35.672938],[-118.348186,35.672399],[-118.348785,35.672345],[-118.349886,35.672373],[-118.35289,35.672736],[-118.353741,35.672888],[-118.354199,35.673018],[-118.35469,35.673221],[-118.35507151,35.67346339],[-118.355318,35.67362],[-118.355539,35.673835],[-118.355894,35.674297],[-118.35077248,35.67561415],[-118.34855433,35.67899259],[-118.3407908,35.68304653],[-118.33815675,35.68619946],[-118.33510679,35.68980265],[-118.32886824,35.69351827],[-118.32692736,35.69577007],[-118.32533434,35.69745119],[-118.32608864,35.69796296],[-118.32635432,35.69825645],[-118.32646668,35.69853349],[-118.32647923,35.69875682],[-118.32648558,35.69886981],[-118.32655824,35.69916628],[-118.3265786,35.699237],[-118.32660098,35.69931476],[-118.32664735,35.69984092],[-118.32660823,35.70007012],[-118.32656133,35.70026016],[-118.32649029,35.70054794],[-118.32646581,35.70074613],[-118.32627827,35.70109551],[-118.32609682,35.70134014],[-118.32616005,35.70148933],[-118.32623239,35.70166003],[-118.32652313,35.70196498],[-118.32679751,35.70225461],[-118.32712538,35.70243936],[-118.32716677,35.7024505],[-118.32758107,35.70256196],[-118.32795857,35.70270249],[-118.32830796,35.70288388],[-118.32844234,35.70300447],[-118.32873615,35.7032571],[-118.32878927,35.70344793],[-118.32891973,35.70369886],[-118.32893952,35.70373693],[-118.32897529,35.70376054],[-118.32931091,35.70398209],[-118.32959618,35.70416098],[-118.32974704,35.70443951],[-118.32987042,35.70474844],[-118.33005855,35.70504939],[-118.33016482,35.70543107],[-118.3302039,35.70564233],[-118.33031016,35.706024],[-118.33074142,35.70656512],[-118.33120384,35.70701308],[-118.33148543,35.70747497],[-118.33159232,35.70784618],[-118.33166134,35.70820542],[-118.33164623,35.70846388],[-118.3316326,35.7086972],[-118.33170162,35.70883622],[-118.3317528,35.70889146],[-118.33194353,35.70909732],[-118.33215611,35.70942019],[-118.33218446,35.70945996],[-118.33241757,35.70978692],[-118.33266865,35.70989106],[-118.33300221,35.70990403],[-118.33312542,35.70991302],[-118.3333095,35.70992646],[-118.33352454,35.70998725],[-118.3336571,35.71013922],[-118.33369375,35.71039234],[-118.33370915,35.71049869],[-118.33372124,35.71058217],[-118.33380561,35.71067121],[-118.33399981,35.71087615],[-118.3341116,35.71116365],[-118.33411099,35.71139434],[-118.33441522,35.71168931],[-118.33463332,35.71191802],[-118.33475245,35.71230019],[-118.33455266,35.7126385],[-118.33425123,35.71295324],[-118.33416364,35.71327094],[-118.3341372,35.71336695],[-118.3341889,35.71354309],[-118.33423372,35.7136958],[-118.33455018,35.71422197],[-118.33461005,35.71451794],[-118.33451962,35.71496537],[-118.3344524,35.71523543],[-118.33438415,35.71538627],[-118.33436381,35.71543124],[-118.33428315,35.71593149],[-118.33427458,35.71629821],[-118.33430452,35.71644619],[-118.33447803,35.71655781],[-118.33459959,35.71667532],[-118.33463626,35.71671077],[-118.33481772,35.71690659],[-118.33505293,35.71728278],[-118.33520751,35.71749853],[-118.33550505,35.71768837],[-118.3355582,35.71787921],[-118.33553498,35.71805658],[-118.33545371,35.71834707],[-118.33535099,35.7185022],[-118.33528446,35.71860267],[-118.33520442,35.71887223],[-118.33517708,35.71905476],[-118.33516225,35.71915375],[-118.33516821,35.71929948],[-118.33517813,35.71954239],[-118.3351837,35.71962157],[-118.33519616,35.71975182],[-118.3352936,35.71998734],[-118.33542618,35.72035954],[-118.33545102,35.72053781],[-118.33548265,35.72075612],[-118.33555692,35.72098336],[-118.33571089,35.72120957],[-118.33572616,35.72138845],[-118.33573654,35.72165103],[-118.33574142,35.72200778],[-118.33576769,35.72221855],[-118.33577685,35.72250206],[-118.33585322,35.72273574],[-118.33603408,35.72316225],[-118.33624609,35.72349559],[-118.33655344,35.72395848],[-118.3370117,35.72447966],[-118.33718584,35.72480104],[-118.3375543,35.72531873],[-118.33767406,35.72569043],[-118.33769544,35.7259849],[-118.3377062,35.72617586],[-118.33771439,35.72632123],[-118.33779075,35.72641157],[-118.33790687,35.72654894],[-118.33832971,35.72679607],[-118.33860774,35.72688027],[-118.33893201,35.7270005],[-118.33872388,35.72718057],[-118.33849127,35.7275187],[-118.33844129,35.72773118],[-118.33844665,35.72785391],[-118.33858408,35.72807366],[-118.33864522,35.72819331],[-118.33868522,35.72827159],[-118.33860669,35.72854422],[-118.33853649,35.72910307],[-118.33850747,35.7293173],[-118.33849247,35.72942809],[-118.33852304,35.72959325],[-118.33854959,35.72973662],[-118.33857398,35.7299622],[-118.33856565,35.73031924],[-118.33861444,35.73098481],[-118.33853769,35.7314413],[-118.3384889,35.7316334],[-118.33844376,35.73179474],[-118.33840977,35.73191622],[-118.33841066,35.73211413],[-118.33841156,35.7323145],[-118.33844844,35.73254056],[-118.33836039,35.73297619],[-118.33835027,35.73314937],[-118.33835205,35.73322568],[-118.33835384,35.73330267],[-118.33842238,35.73339221],[-118.33856327,35.73357627],[-118.33876438,35.73377808],[-118.33901605,35.73397164],[-118.33908447,35.73408661],[-118.33903687,35.73425833],[-118.33869,35.73462265],[-118.33835681,35.73475266],[-118.33737508,35.73505148],[-118.33671899,35.73514655],[-118.33654151,35.73517226],[-118.33609943,35.73523677],[-118.33583228,35.73530807],[-118.33548462,35.73560384],[-118.33508435,35.73589164],[-118.3346136,35.73632118],[-118.33451551,35.73641069],[-118.33443696,35.73668331],[-118.33444114,35.73673319],[-118.33447382,35.73712379],[-118.33439508,35.73735367],[-118.33435302,35.73747646],[-118.3343167,35.73788347],[-118.33442387,35.73812495],[-118.33448268,35.73825749],[-118.33471235,35.73839915],[-118.33485038,35.73860872],[-118.33481467,35.73879112],[-118.33478609,35.73906569],[-118.3348845,35.73932159],[-118.33490567,35.73937665],[-118.33508357,35.73954693],[-118.33521482,35.73962112],[-118.33527754,35.73965657],[-118.3354959,35.73999179],[-118.33558276,35.74021979],[-118.33565355,35.74050843],[-118.33582016,35.74065785],[-118.33627118,35.74086937],[-118.33651156,35.74104208],[-118.336649,35.74126184],[-118.33677098,35.74153204],[-118.33688343,35.74175083],[-118.33707264,35.74194197],[-118.33737373,35.74214766],[-118.33756592,35.74228786],[-118.33771884,35.74245717],[-118.33781167,35.74258329],[-118.33778726,35.74278656],[-118.33770574,35.7428957],[-118.33758851,35.74318725],[-118.33749448,35.74351033],[-118.337407,35.74372135],[-118.33720587,35.74394838],[-118.33713442,35.74417042],[-118.33673044,35.74446786],[-118.33662598,35.74475053],[-118.33654812,35.74496124],[-118.33621049,35.74548613],[-118.33588599,35.74578631],[-118.33531137,35.74616436],[-118.33520984,35.74618379],[-118.33498542,35.74622676],[-118.33486801,35.74639736],[-118.33480066,35.74663453],[-118.33475204,35.74680574],[-118.33460254,35.74700011],[-118.33448294,35.74720816],[-118.3344151,35.74758087],[-118.33429986,35.74797677],[-118.33418171,35.74815985],[-118.3334255,35.74849329],[-118.33309589,35.74861811],[-118.33281879,35.74863235],[-118.33260292,35.74891173],[-118.33227839,35.7492119],[-118.33199106,35.74940091],[-118.33176863,35.74952989],[-118.33157172,35.74974744],[-118.33151445,35.74982278],[-118.33140544,35.74996618],[-118.33130695,35.7503377],[-118.33124745,35.75069637],[-118.33121208,35.75090955],[-118.33116261,35.75100162],[-118.33098816,35.75132623],[-118.33091521,35.75152358],[-118.33065774,35.75198901],[-118.33062707,35.75225056],[-118.33049068,35.75248297],[-118.33041553,35.75271777],[-118.33041923,35.75282872],[-118.33043224,35.75321888],[-118.33035706,35.75371642],[-118.33028557,35.75388881],[-118.33009595,35.75398152],[-118.33004269,35.75400757],[-118.32990633,35.75407424],[-118.32978961,35.75425956],[-118.32956788,35.75461158],[-118.32935856,35.7547786],[-118.32902746,35.75492836],[-118.32862061,35.75502159],[-118.32839372,35.75500379],[-118.32795833,35.75509945],[-118.32773076,35.7553158],[-118.32732872,35.75573941],[-118.32715819,35.75591909],[-118.32707137,35.75609087],[-118.32689414,35.75623411],[-118.32669285,35.75626381],[-118.32631072,35.75623642],[-118.32598984,35.75621141],[-118.32577978,35.75615749],[-118.32570252,35.75613766],[-118.32538458,35.75606272],[-118.32509872,35.75596401],[-118.32489017,35.75585579],[-118.32463642,35.7557333],[-118.32451463,35.75571605],[-118.32399096,35.75600844],[-118.32386112,35.75612849],[-118.32366856,35.75627113],[-118.32327027,35.7567811],[-118.32321134,35.75694046],[-118.32314256,35.75712644],[-118.32293609,35.75750626],[-118.32270704,35.75774756],[-118.32255125,35.75782173],[-118.32239122,35.75789791],[-118.32226431,35.75796803],[-118.32181493,35.75856358],[-118.3215348,35.75889047],[-118.32135747,35.75929644],[-118.32125888,35.75969665],[-118.32121145,35.75995386],[-118.32118801,35.76035332],[-118.32106468,35.76062377],[-118.32089908,35.76083001],[-118.32071815,35.76103565],[-118.32062529,35.76110058],[-118.32043002,35.76123711],[-118.32010386,35.76182495],[-118.31996302,35.76213224],[-118.31992495,35.76243149],[-118.319906,35.76258044],[-118.31981329,35.76275025],[-118.3197856,35.76280095],[-118.31976003,35.76297512],[-118.31977766,35.76306232],[-118.3198671,35.76350477],[-118.31987941,35.76381804],[-118.3198553,35.76396724],[-118.31970247,35.76400648],[-118.31955916,35.76404327],[-118.31932576,35.76409673],[-118.3192878,35.76422037],[-118.31908333,35.7650882],[-118.31903731,35.76534914],[-118.31902543,35.76555134],[-118.31901972,35.76564874],[-118.31897924,35.76571878],[-118.31881466,35.76600357],[-118.3186228,35.76613372],[-118.31862639,35.76633404],[-118.31870282,35.76686251],[-118.31865532,35.76714842],[-118.31861589,35.76729702],[-118.31871211,35.76748844],[-118.31877322,35.76769559],[-118.31880173,35.76779222],[-118.31881404,35.76810549],[-118.31883779,35.76826969],[-118.31885771,35.76840747],[-118.31908119,35.76858182],[-118.31919533,35.76867087],[-118.31945491,35.76895625],[-118.31978602,35.76906925],[-118.32025645,35.76916267],[-118.32043292,35.76929466],[-118.32045908,35.7696335],[-118.32044831,35.76981708],[-118.32044369,35.76989564],[-118.32065985,35.77030487],[-118.32073384,35.77044495],[-118.32081761,35.77084859],[-118.32081388,35.77087698],[-118.32077103,35.77120343],[-118.32076206,35.77127181],[-118.32073881,35.77129912],[-118.3205147,35.77156245],[-118.32051537,35.7718127],[-118.32058316,35.77196548],[-118.32070086,35.77204722],[-118.32090768,35.77219084],[-118.32102648,35.77252077],[-118.32114675,35.77282574],[-118.32142533,35.77304929],[-118.32176012,35.77309988],[-118.32206721,35.77309934],[-118.3224042,35.77311248],[-118.32286007,35.7731928],[-118.3231569,35.77336702],[-118.3234829,35.7735674],[-118.32369583,35.77386346],[-118.32414511,35.77405613],[-118.32449376,35.77413228],[-118.32473079,35.77427914],[-118.32481611,35.77439507],[-118.32487006,35.77452228],[-118.324837,35.77453812],[-118.32445934,35.77471898],[-118.32421565,35.7749472],[-118.32386327,35.77519622],[-118.32350289,35.7753198],[-118.32310968,35.77547964],[-118.32276462,35.77560381],[-118.32270431,35.77560146],[-118.32251953,35.77559426],[-118.32233058,35.77567448],[-118.32218825,35.77600674],[-118.32214802,35.77643056],[-118.32218078,35.77665705],[-118.32237113,35.77681461],[-118.3224984,35.77684587],[-118.32267384,35.77688897],[-118.32306479,35.77702932],[-118.32316835,35.77709591],[-118.3231635,35.77729338],[-118.3231573,35.7775459],[-118.32312806,35.77778248],[-118.3230135,35.77790313],[-118.32285445,35.77799702],[-118.32281356,35.77817059],[-118.32300743,35.77879121],[-118.32311453,35.77932087],[-118.32327471,35.77966649],[-118.32329169,35.77970313],[-118.32341711,35.77992071],[-118.32337541,35.7803695],[-118.32318998,35.78091278],[-118.32302322,35.78121458],[-118.32296665,35.78131696],[-118.32293368,35.78140843],[-118.32281991,35.78172412],[-118.32277121,35.78176018],[-118.32253097,35.78193807],[-118.32233321,35.78216808],[-118.32199318,35.78246761],[-118.32153271,35.78298765],[-118.32147588,35.78318728],[-118.32158511,35.78340258],[-118.32200674,35.78354413],[-118.32252248,35.78365182],[-118.32349994,35.78400271],[-118.32364508,35.78414599],[-118.32366326,35.7843594],[-118.32367339,35.78471012],[-118.32379808,35.78494018],[-118.32457853,35.78550859],[-118.32518579,35.78579762],[-118.32526568,35.78583565],[-118.32535194,35.7858363],[-118.32566474,35.78583868],[-118.32606307,35.7858542],[-118.32653219,35.78570982],[-118.32689335,35.78557375],[-118.3271801,35.78539725],[-118.32745006,35.78524511],[-118.32774407,35.78520651],[-118.32817377,35.78521073],[-118.32846632,35.7851971],[-118.32878657,35.78523459],[-118.3290317,35.78524413],[-118.32930527,35.78529232],[-118.32970359,35.78530782],[-118.32995964,35.78539286],[-118.33042872,35.78551121],[-118.33078035,35.78553741],[-118.33115536,35.78542688],[-118.33138297,35.78547327],[-118.33151719,35.78554106],[-118.33164337,35.78574615],[-118.33173163,35.78580753],[-118.33210075,35.78606422],[-118.33241589,35.78618909],[-118.33260047,35.78618376],[-118.3327471,35.78615988],[-118.33284852,35.78614336],[-118.33317245,35.78611842],[-118.33364373,35.78619931],[-118.33421859,35.78634678],[-118.33465412,35.78651386],[-118.33486272,35.78688481],[-118.33511656,35.78727002],[-118.33569945,35.78754292],[-118.33608317,35.78780807],[-118.33644649,35.78789726],[-118.33672519,35.78785805],[-118.33711479,35.78776058],[-118.33745769,35.78767382],[-118.33773931,35.78758467],[-118.33811286,35.78749909],[-118.33843679,35.78747414],[-118.33889205,35.78730415],[-118.33903286,35.78725958],[-118.33923791,35.78722617],[-118.33928091,35.78721916],[-118.33931262,35.78718135],[-118.33941297,35.78706164],[-118.33974494,35.78689937],[-118.34002863,35.78682504],[-118.34011921,35.78680131],[-118.34059926,35.78673237],[-118.34110704,35.78671455],[-118.34126025,35.7867205],[-118.34152143,35.78671813],[-118.34179428,35.78677877],[-118.34228236,35.78683525],[-118.34252749,35.78684477],[-118.34277624,35.78682729],[-118.34274562,35.78705342],[-118.34274343,35.78735362],[-118.3426909,35.78746418],[-118.34254206,35.78764608],[-118.34246691,35.78788088],[-118.34241145,35.78804138],[-118.34241656,35.78821674],[-118.34224834,35.78832143],[-118.34211377,35.78840518],[-118.3418555,35.78862036],[-118.34175627,35.78874162],[-118.34173656,35.78907867],[-118.34177886,35.78940562],[-118.34177231,35.7894732],[-118.34174018,35.78980449],[-118.34186952,35.79009173],[-118.31941221,35.79013456],[-118.30980365,35.79015288],[-118.29295618,35.78997734],[-118.28998068,35.78994634],[-118.2828242,35.78987177],[-118.27417785,35.78979931],[-118.2721307,35.78977445],[-118.27058471,35.78975568],[-118.26942279,35.78522259],[-118.25872965,35.73872134],[-118.27319743,35.72333998],[-118.27793843,35.7117235],[-118.27810775,35.69989908],[-118.27083626,35.68661154],[-118.27131017,35.6861642],[-118.27470733,35.68723664],[-118.27767889,35.68872863],[-118.28043434,35.68921133],[-118.28348694,35.68973791],[-118.2944277,35.68980373],[-118.29483291,35.68888222],[-118.29575139,35.68743411],[-118.30198378,35.68288691],[-118.30333662,35.68175834],[-118.30509166,35.68181774],[-118.30995458,35.68410455],[-118.31097836,35.68386696],[-118.3207042,35.67869926],[-118.3224958,35.67858046],[-118.32454334,35.67765974],[-118.3264812,35.67552126],[-118.32622526,35.67344212],[-118.32765123,35.67308569],[-118.328652,35.67297483],[-118.32899314,35.6730564]]]},"properties":{"OBJECTID":1098069,"COUNTY":"KERN","CITY":"KRN","ZONE_NAME":null,"ZONE_ID":"US-CA-XKE-KRN-768","STATUS":"Evacuation Warning","EVENT_TYPE":null,"CRITICAL_INFO":null,"PUBLIC_INFO":null,"EDIT_DATE":1791589806000,"STATEWIDE_LAST_UPDATED":null,"NOTES":"KRN-768 is under and Evacuation Warning due to the Cyrus Fire. There is a potential threat to life and/or property. Those who require additional time to evacuate and those with pets and livestock should leave now. ","SHAPE__Area":102768441.00390625,"SHAPE__Length":57100.0081053389,"GlobalID":"94b06cde-502f-4a65-81a1-4de5a74743f5","CreationDate":1791589830926,"Creator":"CalOES_Scripts","EditDate":1791589830926,"Editor":"CalOES_Scripts"}}]}